name,address,city,state,zip,country,phone,lat,lng,url
"Golden Glades-Miami Health Center","585 N.W. 161 St. Suites 200-300","Miami","FL","33169","US","305-830-4111","25.922719","-80.2097299","https://www.plannedparenthood.org/health-center/florida/miami/33169/golden-glades-miami-health-center-4183-90320"
"Waukegan Health Center","1601 N Lewis","Waukegan","IL","60085","US","847-672-2237","42.3828215","-87.8545918","https://www.plannedparenthood.org/health-center/illinois/waukegan/60085/waukegan-health-center-2675-90430"
"Frederick Health Center","170 Thomas Johnson Drive","Frederick","MD","21702","US","410-576-1414","39.442189","-77.4056838","https://www.plannedparenthood.org/health-center/maryland/frederick/21702/frederick-health-center-2899-90620"
"Hillman East Portland Center","14601 SE Division Street","Portland","OR","97236","US","888-875-7820","45.5045389","-122.5128968","https://www.plannedparenthood.org/health-center/oregon/portland/97236/hillman-east-portland-center-2673-91400"
"Puyallup Health Center","702-30th Ave SW","Puyallup","WA","98373","US","800-769-0045","47.16273339999999","-122.30144160000002","https://www.plannedparenthood.org/health-center/washington/puyallup/98373/puyallup-health-center-2504-91810"
"Twin Falls Health Center","200 Second Ave N.","Twin Falls","ID","83301","US","800-769-0045","42.5574905","-114.4703831","https://www.plannedparenthood.org/health-center/idaho/twin-falls/83301/twin-falls-health-center-2938-91810"
"West Eugene Health Center","793 N. Danebo Avenue","Eugene","OR","97402","US","541-344-9411","44.0693623","-123.1777214","https://www.plannedparenthood.org/health-center/oregon/eugene/97402/west-eugene-health-center-3069-91380"
"Lubbock Health Center","3716 22nd Place","Lubbock","TX","79410","US","806-696-3436","33.5744609","-101.8960562","https://www.plannedparenthood.org/health-center/texas/lubbock/79410/lubbock-health-center-2674-91620"
"Planned Parenthood Heights","100 West Wicks Lane","Billings","MT","59105","US","406-869-5040","45.8270403","-108.4894492","https://www.plannedparenthood.org/health-center/montana/billings/59105/planned-parenthood-heights-2438-90790"
"S. Mark Taper Foundation Center for Medical Training","400 West 30th Street","Los Angeles","CA","90007","US","800-576-5544","34.0237259","-118.2760168","https://www.plannedparenthood.org/health-center/california/los-angeles/90007/s-mark-taper-foundation-center-for-medical-training-3862-90070"
"Salem Health Center","3825 Wolverine St., NE","Salem","OR","97305","US","888-875-7820","44.95870539999999","-122.9857098","https://www.plannedparenthood.org/health-center/oregon/salem/97305/salem-health-center-2412-91400"
"Boca Raton Health Center","8177 Glades Rd. Bay 25","Boca Raton","FL","33434","US","561-226-4116","26.3694658","-80.172785","https://www.plannedparenthood.org/health-center/florida/boca-raton/33434/boca-raton-health-center-3863-90320"
"Bremerton Health Center","723 NE Riddell Road, Suite A","Bremerton","WA","98310","US","800-769-0045","47.6064348","-122.6371839","https://www.plannedparenthood.org/health-center/washington/bremerton/98310/bremerton-health-center-2461-91810"
"Antelope Valley Health Center","533 E. Palmdale Boulevard, Ste. 533-A1","Palmdale","CA","93550","US","800-576-5544","34.5806561","-118.11974","https://www.plannedparenthood.org/health-center/california/palmdale/93550/antelope-valley-health-center-4054-90070"
"Jackson Health Center","2009 W. Michigan Ave.","Jackson","MI","49202","US","517-784-1700","42.2471375","-84.43854","https://www.plannedparenthood.org/health-center/michigan/jackson/49202/jackson-health-center-2784-90630"
"San Mateo","701 San Mateo NE","Albuquerque","NM","87108","US","505-265-9511","35.0838687","-106.5865123","https://www.plannedparenthood.org/health-center/new-mexico/albuquerque/87108/san-mateo-2956-90210"
"Planned Parenthood Helena","1500 Cannon","Helena","MT","59601","US","406-443-7676","46.6027185","-112.0575946","https://www.plannedparenthood.org/health-center/montana/helena/59601/planned-parenthood-helena-2443-90790"
"Lubbock Abortion Services Center","3716 22nd Place","Lubbock","TX","79410","US","806-696-3440","33.5744609","-101.8960562","https://www.plannedparenthood.org/health-center/texas/lubbock/79410/lubbock-abortion-services-center-3776-91620"
"Jean Shehan Health Center","1378 Coral Way, 4th Fl","Miami","FL","33145","US","305-285-5535","25.7504182","-80.2444331","https://www.plannedparenthood.org/health-center/florida/miami/33145/jean-shehan-health-center-3369-90320"
"Centralia Health Center","1020 W Main Street","Centralia","WA","98531","US","800-769-0045","46.7185763","-122.96647509999998","https://www.plannedparenthood.org/health-center/washington/centralia/98531/centralia-health-center-2453-91810"
"Northwest Health Center","3105 N. 93rd St","Omaha","NE","68134","US","877-811-7526","41.287605","-96.0553591","https://www.plannedparenthood.org/health-center/nebraska/omaha/68134/northwest-health-center-2447-90380"
"Ann Arbor West Health Center","2370 W. Stadium Blvd.","Ann Arbor","MI","48103","US","734-929-9480","42.2776831","-83.7786313","https://www.plannedparenthood.org/health-center/michigan/ann-arbor/48103/ann-arbor-west-health-center-2969-90630"
"New Rochelle Center","150 Lockwood Avenue Suite LL-1","New Rochelle","NY","10801","US","914-632-4442","40.91248470000001","-73.7904856","https://www.plannedparenthood.org/health-center/new-york/new-rochelle/10801/new-rochelle-center-2206-91220"
"Las Vegas East Flamingo","3300 E Flamingo Rd #25","Las Vegas","NV","89121","US","702-547-9888","36.1164387","-115.1028268","https://www.plannedparenthood.org/health-center/nevada/las-vegas/89121/las-vegas-east-flamingo-2306-90210"
"Birmingham Center","1019 1st Avenue N","Birmingham","AL","35203","US","205-322-2121","33.51536289999999","-86.83453829999999","https://www.plannedparenthood.org/health-center/alabama/birmingham/35203/birmingham-center-3253-90330"
"Rosenfield Center","1000 E. Army Post Road","Des Moines","IA","50315","US","877-811-7526","41.5277582","-93.6026648","https://www.plannedparenthood.org/health-center/iowa/des-moines/50315/rosenfield-center-2386-90380"
"Treasure Coast Health Center","1696 SE Hillmoor Dr","Port Saint Lucie","FL","34952","US","772-692-2023","27.2881485","-80.2970112","https://www.plannedparenthood.org/health-center/florida/port-saint-lucie/34952/treasure-coast-health-center-2627-90320"
"Arvada","7735 Wadsworth Boulevard","Arvada","CO","80003","US","303-425-6624","39.8360531","-105.0838158","https://www.plannedparenthood.org/health-center/colorado/arvada/80003/arvada-2487-90210"
"Juneau Health Center","3231 Glacier Hwy.","Juneau","AK","99801","US","800-769-0045","58.3304064","-134.4728734","https://www.plannedparenthood.org/health-center/alaska/juneau/99801/juneau-health-center-3865-91810"
"Bedford Heights Surgery Center","25350 Rockside Rd","Bedford Heights","OH","44146","US","440-232-9732","41.409114","-81.49970599999999","https://www.plannedparenthood.org/health-center/ohio/bedford-heights/44146/bedford-heights-surgery-center-4061-91230"
"Lincoln South Health Center","5631 S. 48th Street","Lincoln","NE","68516","US","877-811-7526","40.7562213","-96.65441119999998","https://www.plannedparenthood.org/health-center/nebraska/lincoln/68516/lincoln-south-health-center-4062-90380"
"White Center Health Center","9942 8th Avenue SW","Seattle","WA","98106","US","800-769-0045","47.5141093","-122.3451512","https://www.plannedparenthood.org/health-center/washington/seattle/98106/white-center-health-center-4161-91810"
"Tallahassee Health Center","2618 W Tennessee Street","Tallahassee","FL","32304","US","850-574-7455","30.4402326","-84.3202462","https://www.plannedparenthood.org/health-center/florida/tallahassee/32304/tallahassee-health-center-2154-90320"
"Honolulu Health Center","839 S Beretania Street","Honolulu","HI","96813","US","800-769-0045","21.30343","-157.85042999999996","https://www.plannedparenthood.org/health-center/hawaii/honolulu/96813/honolulu-health-center-2951-91810"
"East End Health Center","1122 N 25th Street","Richmond","VA","23223","US","804-508-6045","37.5393205","-77.4117881","https://www.plannedparenthood.org/health-center/virginia/richmond/23223/east-end-health-center-2680-91750"
"Highland Park Health Center","5903 N. Figueroa Street","Los Angeles","CA","90042","US","626-798-0706","34.1109336","-118.1908594","https://www.plannedparenthood.org/health-center/california/los-angeles/90042/highland-park-health-center-3695-90090"
"Anchorage Health Center","4001 Lake Otis Parkway #101","Anchorage","AK","99508","US","800-769-0045","61.184145","-149.83708679999998","https://www.plannedparenthood.org/health-center/alaska/anchorage/99508/anchorage-health-center-3254-91810"
"Marysville Health Center","10210 State Ave.","Marysville","WA","98271","US","800-769-0045","48.0878649","-122.17406459999998","https://www.plannedparenthood.org/health-center/washington/marysville/98271/marysville-health-center-2457-91810"
"Colorado Springs Westside","3480 Centennial Blvd.","Colorado Springs","CO","80907","US","719-475-7162","38.8808944","-104.8489479","https://www.plannedparenthood.org/health-center/colorado/colorado-springs/80907/colorado-springs-westside-3967-90210"
"Jacksonville Health Center","5978 Powers Avenue","Jacksonville","FL","32217","US","904-399-2800","30.2623939","-81.621769","https://www.plannedparenthood.org/health-center/florida/jacksonville/32217/jacksonville-health-center-3278-90320"
"Hamilton Health Center","201 N Hamilton Street","Richmond","VA","23221","US","804-355-4358","37.5595524","-77.4903742","https://www.plannedparenthood.org/health-center/virginia/richmond/23221/hamilton-health-center-3913-91750"
"Greensboro Health Center","1704 Battleground Ave","Greensboro","NC","27408","US","336-373-0678","36.091755","-79.812635","https://www.plannedparenthood.org/health-center/north-carolina/greensboro/27408/greensboro-health-center-2846-90860"
"Fairview Heights Health Center","317 Salem Place","Fairview Heights","IL","62208","US","618-277-6668","38.5677485","-89.9883642","https://www.plannedparenthood.org/health-center/illinois/fairview-heights/62208/fairview-heights-health-center-2712-90770"
"Fort Collins","825 South Shields St","Fort Collins","CO","80521","US","970-493-0281","40.5753904","-105.0964745","https://www.plannedparenthood.org/health-center/colorado/fort-collins/80521/fort-collins-4087-90210"
"Nashville Health Center","412 Dr. D.B. Todd, Jr. Blvd.","Nashville","TN","37203","US","866-711-1717","36.1589462","-86.8004511","https://www.plannedparenthood.org/health-center/tennessee/nashville/37203/nashville-health-center-2716-91550"
"Warren Health Center","29350 Van Dyke Ave.","Warren","MI","48093","US","586-558-0101","42.5094103","-83.0281111","https://www.plannedparenthood.org/health-center/michigan/warren/48093/warren-health-center-3834-90630"
"Memphis Health Center - Midtown","2430 Poplar Avenue","Memphis","TN","38112","US","866-711-1717","35.1396544","-89.9796874","https://www.plannedparenthood.org/health-center/tennessee/memphis/38112/memphis-health-center-midtown-3348-91550"
"Knoxville Health Center","710 North Cherry St.","Knoxville","TN","37914","US","866-711-1717","35.990034","-83.896792","https://www.plannedparenthood.org/health-center/tennessee/knoxville/37914/knoxville-health-center-2610-91550"
"Ferndale Health Center","23338 Woodward Ave.","Ferndale","MI","48220","US","248-399-5900","42.4656285","-83.13744359999998","https://www.plannedparenthood.org/health-center/michigan/ferndale/48220/ferndale-health-center-4053-90630"
"Detroit Health Center","4229 Cass Ave.","Detroit","MI","48201","US","313-831-7776","42.3508769","-83.0639943","https://www.plannedparenthood.org/health-center/michigan/detroit/48201/detroit-health-center-2890-90630"
"Lansing Health Center","300 N. Clippert, Ste. 6","Lansing","MI","48912","US","517-351-0550","42.7363847","-84.5074701","https://www.plannedparenthood.org/health-center/michigan/lansing/48912/lansing-health-center-2785-90630"
"Livonia Health Center","15707 Farmington Road","Livonia","MI","48154","US","734-591-6544","42.4010711","-83.37426879999998","https://www.plannedparenthood.org/health-center/michigan/livonia/48154/livonia-health-center-2677-90630"
"Marquette Health Center","1219 N. Third St.","Marquette","MI","49855","US","906-225-5070","46.5553827","-87.3950521","https://www.plannedparenthood.org/health-center/michigan/marquette/49855/marquette-health-center-2605-90630"
"Walker Health Center","1135 E. Eighth St.","Traverse City","MI","49686","US","231-929-1844","44.7589099","-85.59318499999999","https://www.plannedparenthood.org/health-center/michigan/traverse-city/49686/walker-health-center-3297-90630"
"Ann Arbor East Health Center","3100 Professional Drive","Ann Arbor","MI","48104","US","734-973-0710","42.2552684","-83.6991451","https://www.plannedparenthood.org/health-center/michigan/ann-arbor/48104/ann-arbor-east-health-center-3296-90630"
"East Columbus Surgical Center","3255 East Main Street","Columbus","OH","43213","US","614-222-3531","39.956195","-82.911226","https://www.plannedparenthood.org/health-center/ohio/columbus/43213/east-columbus-surgical-center-2335-91230"
"Carol Whitehill Moses Center","1225 4th St. NE","Washington","DC","20002","US","202-347-8512","38.9052763","-76.9815877","https://www.plannedparenthood.org/health-center/district-of-columbia/washington/20002/carol-whitehill-moses-center-4221-90230"
"Yakima Health Center","1117 Tieton Dr.","Yakima","WA","98902","US","866-904-7721","46.5930574","-120.5239548","https://www.plannedparenthood.org/health-center/washington/yakima/98902/yakima-health-center-3311-91850"
"Milwaukee-Wisconsin Avenue Health Center","2207 W. Wisconsin Ave","Milwaukee","WI","53233","US","414-931-8181","43.0383706","-87.9408142","https://www.plannedparenthood.org/health-center/wisconsin/milwaukee/53233/milwaukee-wisconsin-avenue-health-center-2819-91860"
"San Ramon Health Center","200 Porter Drive, Suite 200","San Ramon","CA","94583","US","925-838-2108","37.7737543","-121.9905091","https://www.plannedparenthood.org/health-center/california/san-ramon/94583/san-ramon-health-center-2572-90200"
"Canton Health Center","2663 Cleveland Ave NW","Canton","OH","44709","US","330-456-7191","40.827475","-81.386004","https://www.plannedparenthood.org/health-center/ohio/canton/44709/canton-health-center-2464-91230"
"Old Brooklyn Health Center","2186 Brookpark Road","Cleveland","OH","44134","US","216-661-0400","41.419777","-81.696819","https://www.plannedparenthood.org/health-center/ohio/cleveland/44134/old-brooklyn-health-center-2508-91230"
"Moorhead Health Center","803 Belsly Boulevard","Moorhead","MN","56560","US","218-236-7145","46.83906499999999","-96.767028","https://www.plannedparenthood.org/health-center/minnesota/moorhead/56560/moorhead-health-center-2932-90720"
"Planned Parenthood - Northeast","11514 Perrin Beitel Rd","San Antonio","TX","78217","US","210-590-0202","29.5450112","-98.41001590000002","https://www.plannedparenthood.org/health-center/texas/san-antonio/78217/planned-parenthood-northeast-2962-91710"
"Glendora Health Center","130 W Route 66","Glendora","CA","91740","US","626-798-0706","34.1281475","-117.8651493","https://www.plannedparenthood.org/health-center/california/glendora/91740/glendora-health-center-4070-90090"
"Prevention Park Health Center - Family Planning","4600 Gulf Freeway, Ste. 100, 1st Floor","Houston","TX","77023","US","713.522.3976","29.7256613","-95.3347957","https://www.plannedparenthood.org/health-center/texas/houston/77023/prevention-park-health-center-family-planning-2291-91650"
"West Health Center","3303 109th Street","Urbandale","IA","50322","US","877-811-7526","41.6185348","-93.7620225","https://www.plannedparenthood.org/health-center/iowa/urbandale/50322/west-health-center-2388-90380"
"Baton Rouge Health Center","3825 Government Street","Baton Rouge","LA","70806","US","225-387-1167","30.44439120000001","-91.1503009","https://www.plannedparenthood.org/health-center/louisiana/baton-rouge/70806/baton-rouge-health-center-4269-91650"
"Hollywood Health Center","1014 1/2 N Vermont Ave","Los Angeles","CA","90029","US","800-576-5544","34.0901681","-118.29124120000002","https://www.plannedparenthood.org/health-center/california/los-angeles/90029/hollywood-health-center-2466-90070"
"South Bay Health Center","14623 Hawthorne Blvd. #300","Lawndale","CA","90260","US","800-576-5544","33.898565","-118.352992","https://www.plannedparenthood.org/health-center/california/lawndale/90260/south-bay-health-center-2477-90070"
"B Street Health Center","201 29th Street, Ste. B","Sacramento","CA","95816","US","916-446-6921","38.581849","-121.463846","https://www.plannedparenthood.org/health-center/california/sacramento/95816/b-street-health-center-2200-90130"
"Family First Health Center","6095 N. 1st Street","Fresno","CA","93710","US","559-446-1515","36.8250467","-119.7739372","https://www.plannedparenthood.org/health-center/california/fresno/93710/family-first-health-center-2365-90130"
"Mountain View Health Center","2500 California Street","Mountain View","CA","94040","US","650-948-0807","37.4033261","-122.10637429999996","https://www.plannedparenthood.org/health-center/california/mountain-view/94040/mountain-view-health-center-2310-90130"
"Roseville Health Center","729 Sunrise Ave. Suite 900","Roseville","CA","95661","US","916-781-3310","38.7345328","-121.27039","https://www.plannedparenthood.org/health-center/california/roseville/95661/roseville-health-center-2197-90130"
"Tracy Health Center","1441 N. Tracy Blvd.","Tracy","CA","95376","US","209-835-8910","37.744749500000005","-121.43534060000002","https://www.plannedparenthood.org/health-center/california/tracy/95376/tracy-health-center-3856-90130"
"Fruitridge Health Center","5385 Franklin Blvd., Suite A-D","Sacramento","CA","95820","US","916-452-7305","38.5262983","-121.4714167","https://www.plannedparenthood.org/health-center/california/sacramento/95820/fruitridge-health-center-2198-90130"
"Hayward Health Center","1032 A Street","Hayward","CA","94541","US","510-300-3800","37.6743552","-122.08319319999998","https://www.plannedparenthood.org/health-center/california/hayward/94541/hayward-health-center-4150-90130"
"North Highlands Health Center","5700 Watt Ave.","North Highlands","CA","95660","US","916-332-5715","38.6705065","-121.3823727","https://www.plannedparenthood.org/health-center/california/north-highlands/95660/north-highlands-health-center-2201-90130"
"Bakersfield Health Center","2633 16th Street","Bakersfield","CA","93301","US","661-634-1000","35.3722089","-119.032749","https://www.plannedparenthood.org/health-center/california/bakersfield/93301/bakersfield-health-center-4028-90130"
"Seaside Health Center","625 Hilby Ave.","Seaside","CA","93955","US","831-394-1691","36.602711","-121.849637","https://www.plannedparenthood.org/health-center/california/seaside/93955/seaside-health-center-2233-90130"
"Redwood City Health Center","2907 El Camino Real","Redwood City","CA","94061","US","650-503-7810","37.4692778","-122.2112942","https://www.plannedparenthood.org/health-center/california/redwood-city/94061/redwood-city-health-center-4129-90130"
"Woodland Health Center","520 Cottonwood Street Suite 10","Woodland","CA","95695","US","530-662-4646","38.6750402","-121.7940825","https://www.plannedparenthood.org/health-center/california/woodland/95695/woodland-health-center-2375-90130"
"Eastside Health Center","3131 Alum Rock Avenue","San Jose","CA","95127","US","408-729-7600","37.36654039999999","-121.8274443","https://www.plannedparenthood.org/health-center/california/san-jose/95127/eastside-health-center-2435-90130"
"Watsonville Health Center","398 South Green Valley Road","Watsonville","CA","95076","US","831-724-7525","36.9302704","-121.7763406","https://www.plannedparenthood.org/health-center/california/watsonville/95076/watsonville-health-center-2229-90130"
"San Mateo Health Center","29 Baywood Ave","San Mateo","CA","94402","US","650-235-7940","37.5644933","-122.3286301","https://www.plannedparenthood.org/health-center/california/san-mateo/94402/san-mateo-health-center-4104-90130"
"Fifth Street Health Center","455 W. 5th Street","Reno","NV","89503","US","775-688-5555","39.5303082","-119.82068529999998","https://www.plannedparenthood.org/health-center/nevada/reno/89503/fifth-street-health-center-2262-90130"
"Madera Health Center","500 E. Almond Suite #1","Madera","CA","93637","US","559-675-1133","36.94521499999999","-120.051955","https://www.plannedparenthood.org/health-center/california/madera/93637/madera-health-center-2363-90130"
"Yuba City Health Center","430 Palora Ave. #G","Yuba City","CA","95991","US","530-674-2603","39.128","-121.63351280000002","https://www.plannedparenthood.org/health-center/california/yuba-city/95991/yuba-city-health-center-2374-90130"
"Salinas Health Center","316 N. Main Street","Salinas","CA","93901","US","831-758-8261","36.682608","-121.652817","https://www.plannedparenthood.org/health-center/california/salinas/93901/salinas-health-center-2228-90130"
"West Oakland Health Center","1682 7th Street","Oakland","CA","94607","US","510-300-3800","37.806631","-122.3004491","https://www.plannedparenthood.org/health-center/california/oakland/94607/west-oakland-health-center-4090-90130"
"Modesto Health Center","1431 McHenry Avenue, Suite 100","Modesto","CA","95350","US","209-579-2300","37.6648277","-120.994421","https://www.plannedparenthood.org/health-center/california/modesto/95350/modesto-health-center-2527-90130"
"Westside Health Center","1119 Pacific Ave. Suite 200","Santa Cruz","CA","95060","US","831-426-5550","36.9722299","-122.02599709999998","https://www.plannedparenthood.org/health-center/california/santa-cruz/95060/westside-health-center-2232-90130"
"San Jose Central Health Center","1691 The Alameda","San Jose","CA","95126","US","408-287-7526","37.3370444","-121.9196852","https://www.plannedparenthood.org/health-center/california/san-jose/95126/san-jose-central-health-center-3263-90130"
"East Oakland / Coliseum Health Center","8480 Enterprise Way","Oakland","CA","94621","US","510-746-4700","37.742396","-122.192324","https://www.plannedparenthood.org/health-center/california/oakland/94621/east-oakland-coliseum-health-center-4188-90130"
"Fulton Street Health Center","650 N. Fulton Street","Fresno","CA","93728","US","559-488-4900","36.7521179","-119.8001187","https://www.plannedparenthood.org/health-center/california/fresno/93728/fulton-street-health-center-2364-90130"
"Blossom Hill Health Center","5440 Thornwood Drive","San Jose","CA","95123","US","408-281-9777","37.2538227","-121.86065050000002","https://www.plannedparenthood.org/health-center/california/san-jose/95123/blossom-hill-health-center-3230-90130"
"Eastland Plaza Health Center","678 N Wilson Way #G","Stockton","CA","95205","US","209-466-2081","37.963225","-121.27171300000002","https://www.plannedparenthood.org/health-center/california/stockton/95205/eastland-plaza-health-center-2529-90130"
"Merced Health Center","3166 Collins Dr.","Merced","CA","95348","US","209-723-7751","37.3202696","-120.4756021","https://www.plannedparenthood.org/health-center/california/merced/95348/merced-health-center-2526-90130"
"Long Beach Health Center","2690 Pacific Avenue, Ste. 370","Long Beach","CA","90806","US","800-576-5544","33.805841","-118.193329","https://www.plannedparenthood.org/health-center/california/long-beach/90806/long-beach-health-center-3945-90070"
"Bixby Health Center","1057 Kingston Avenue","Los Angeles","CA","90033","US","800-576-5544","34.0571698","-118.209793","https://www.plannedparenthood.org/health-center/california/los-angeles/90033/bixby-health-center-4289-90070"
"Compton Health Center","4402 East Compton Blvd Suite #104","Compton","CA","90221","US","800-576-5544","33.8961811","-118.19008329999996","https://www.plannedparenthood.org/health-center/california/compton/90221/compton-health-center-4290-90070"
"Carson Health Center","661 East University Drive","Carson","CA","90746","US","800-576-5544","33.859039","-118.265238","https://www.plannedparenthood.org/health-center/california/carson/90746/carson-health-center-4291-90070"
"Spokane Health Center","123 E. Indiana Ave.","Spokane","WA","99207","US","866-904-7721","47.6752925","-117.4083817","https://www.plannedparenthood.org/health-center/washington/spokane/99207/spokane-health-center-2794-91850"
"Kennewick Health Center","7426 W. Bonnie Pl.","Kennewick","WA","99336","US","866-904-7721","46.23150249999999","-119.2219639","https://www.plannedparenthood.org/health-center/washington/kennewick/99336/kennewick-health-center-2404-91850"
"Canton Center","9 Miner Street","Canton","NY","13617","US","315-386-8821","44.5948805","-75.1710391","https://www.plannedparenthood.org/health-center/new-york/canton/13617/canton-center-2881-91210"
"Wenatchee Health Center","900 Ferry St.","Wenatchee","WA","98801","US","866-904-7721","47.4116445","-120.3129595","https://www.plannedparenthood.org/health-center/washington/wenatchee/98801/wenatchee-health-center-4204-91850"
"Pullman Health Center","1525 SE King Drive","Pullman","WA","99163","US","866-904-7721","46.7159656","-117.1794474","https://www.plannedparenthood.org/health-center/washington/pullman/99163/pullman-health-center-2793-91850"
"Spokane Valley Health Center","12104 E. Main Ave.","Spokane Valley","WA","99206","US","866-904-7721","47.658663","-117.242058","https://www.plannedparenthood.org/health-center/washington/spokane-valley/99206/spokane-valley-health-center-2792-91850"
"Walla Walla Health Center","828 S. First Ave.","Walla Walla","WA","99362","US","866-904-7721","46.0566109","-118.331998","https://www.plannedparenthood.org/health-center/washington/walla-walla/99362/walla-walla-health-center-2405-91850"
"Saranac Lake Clinic","41 St. Bernard St.","Saranac Lake","NY","12983","US","518-891-0046","44.325235","-74.130258","https://www.plannedparenthood.org/health-center/new-york/saranac-lake/12983/saranac-lake-clinic-3428-91210"
"Central Oklahoma City Clinic","619 NW 23rd Street","Oklahoma City","OK","73103","US","405-528-2157","35.4935601","-97.5235988","https://www.plannedparenthood.org/health-center/oklahoma/oklahoma-city/73103/central-oklahoma-city-clinic-3351-90741"
"Northeast Heights","9809 Candelaria Road NE","Albuquerque","NM","87112","US","505-294-1577","35.1168805","-106.5308995","https://www.plannedparenthood.org/health-center/new-mexico/albuquerque/87112/northeast-heights-2803-90210"
"Malone Clinic","246 W. Main Street Suites 1 and 2","Malone","NY","12953","US","518-483-7150","44.848061","-74.305194","https://www.plannedparenthood.org/health-center/new-york/malone/12953/malone-clinic-2778-91210"
"Watertown Center","160 Stone Street","Watertown","NY","13601","US","315-788-8065","43.9743891","-75.9132797","https://www.plannedparenthood.org/health-center/new-york/watertown/13601/watertown-center-3328-91210"
"NE Portland Health Center","3727 NE Martin Luther King Jr. Boulevard","Portland","OR","97212","US","888-875-7820","45.5496971","-122.66179320000002","https://www.plannedparenthood.org/health-center/oregon/portland/97212/ne-portland-health-center-3943-91400"
"Grand Rapids Health Center","1404 NW 4th Street","Grand Rapids","MN","55744","US","218-326-6689","47.235425","-93.54984600000002","https://www.plannedparenthood.org/health-center/minnesota/grand-rapids/55744/grand-rapids-health-center-2931-90720"
"Plattsburgh Clinic","66 Brinkerhoff Street","Plattsburgh","NY","12901","US","518-561-4430","44.6970593","-73.4571666","https://www.plannedparenthood.org/health-center/new-york/plattsburgh/12901/plattsburgh-clinic-3315-91210"
"Greeley","3487B W 10th Street","Greeley","CO","80634","US","970-352-4762","40.4229096","-104.734421","https://www.plannedparenthood.org/health-center/colorado/greeley/80634/greeley-2173-90210"
"Vancouver Health Center","11516 SE Mill Plain Blvd","Vancouver","WA","98684","US","888-875-7820","45.6216974","-122.5535384","https://www.plannedparenthood.org/health-center/washington/vancouver/98684/vancouver-health-center-2455-91400"
"Durango","46 Suttle St","Durango","CO","81303","US","970-247-3002","37.2469649","-107.8760989","https://www.plannedparenthood.org/health-center/colorado/durango/81303/durango-2174-90210"
"Boulder","2525 Arapahoe Ave, Suite C-200","Boulder","CO","80302","US","303-447-1040","40.0156565","-105.2613585","https://www.plannedparenthood.org/health-center/colorado/boulder/80302/boulder-2488-90210"
"Steamboat Springs","111 11th Street Unit 102","Steamboat Springs","CO","80487","US","970-879-2212","40.488926600000006","-106.8369981","https://www.plannedparenthood.org/health-center/colorado/steamboat-springs/80487/steamboat-springs-2168-90210"
"Littleton","131 W County Line Rd","Littleton","CO","80129","US","303-798-0963","39.5674205","-104.9896599","https://www.plannedparenthood.org/health-center/colorado/littleton/80129/littleton-2485-90210"
"Comprehensive Health Center","4401 W 109th Street #100","Overland Park","KS","66211","US","913-345-1400","38.9310037","-94.6367454","https://www.plannedparenthood.org/health-center/kansas/overland-park/66211/comprehensive-health-center-2594-90741"
"Glenwood Springs","50923 Hwy 6 & 24","Glenwood Springs","CO","81601","US","970-945-8631","39.561967","-107.3651805","https://www.plannedparenthood.org/health-center/colorado/glenwood-springs/81601/glenwood-springs-2172-90210"
"Park Hill","7155 E 38th Ave","Denver","CO","80207","US","303-321-2458","39.7698183","-104.9049249","https://www.plannedparenthood.org/health-center/colorado/denver/80207/park-hill-3543-90210"
"Pittsburgh Abortion Services","933 Liberty Avenue","Pittsburgh","PA","15222","US","412-562-1900","40.4434897","-79.9968471","https://www.plannedparenthood.org/health-center/pennsylvania/pittsburgh/15222/pittsburgh-abortion-services-3359-91470"
"Irwin/Martin Health Center","425 Cherry St. SE","Grand Rapids","MI","49503","US","616-459-3101","42.9597078","-85.65810469999998","https://www.plannedparenthood.org/health-center/michigan/grand-rapids/49503/irwinmartin-health-center-3295-90630"
"Boise Health Center","3668 N. Harbor Lane","Boise","ID","83703","US","800-769-0045","43.65313499999999","-116.254842","https://www.plannedparenthood.org/health-center/idaho/boise/83703/boise-health-center-2939-91810"
"Chapel Hill Health Center","1765 Dobbins Drive","Chapel Hill","NC","27514","US","919-942-7762","35.94470489999999","-79.0140503","https://www.plannedparenthood.org/health-center/north-carolina/chapel-hill/27514/chapel-hill-health-center-4169-90860"
"Cortez","20 West North Street","Cortez","CO","81321","US","970-565-7011","37.34989899999999","-108.586285","https://www.plannedparenthood.org/health-center/colorado/cortez/81321/cortez-2169-90210"
"West Chester Surgical Center","8 S Wayne Street","West Chester","PA","19382","US","610-692-1770","39.9566465","-75.6103587","https://www.plannedparenthood.org/health-center/pennsylvania/west-chester/19382/west-chester-surgical-center-3918-91460"
"Meridian Health Center","2112 East Franklin Road","Meridian","ID","83642","US","800-769-0045","43.605411200000006","-116.3680233","https://www.plannedparenthood.org/health-center/idaho/meridian/83642/meridian-health-center-4105-91810"
"Far Northeast Surgical Center","2751 Comly Road","Philadelphia","PA","19154","US","215-464-2225","40.10393479999999","-75.000028","https://www.plannedparenthood.org/health-center/pennsylvania/philadelphia/19154/far-northeast-surgical-center-3441-91460"
"Planned Parenthood - South Texas Medical Center","2140 Babcock Rd","San Antonio","TX","78229","US","210-736-2262","29.5025638","-98.5824428","https://www.plannedparenthood.org/health-center/texas/san-antonio/78229/planned-parenthood-south-texas-medical-center-2967-91710"
"Planned Parenthood - San Pedro 150","920 San Pedro Ave. Suite 150","San Antonio","TX","78212","US","210-806-0324","29.4423583","-98.4987605","https://www.plannedparenthood.org/health-center/texas/san-antonio/78212/planned-parenthood-san-pedro-150-2254-91610"
"Baltimore City Health Center","330 North Howard Street","Baltimore","MD","21201","US","410-576-1414","39.2937589","-76.62008260000002","https://www.plannedparenthood.org/health-center/maryland/baltimore/21201/baltimore-city-health-center-3292-90620"
"Annapolis Health Center","929 West Street Suite 200","Annapolis","MD","21401","US","410-576-1414","38.97618409999999","-76.5092391","https://www.plannedparenthood.org/health-center/maryland/annapolis/21401/annapolis-health-center-2834-90620"
"Easton Health Center, MD","8579 Commerce Drive #102","Easton","MD","21601","US","410-576-1414","38.7842106","-76.0823587","https://www.plannedparenthood.org/health-center/maryland/easton/21601/easton-health-center-md-2830-90620"
"Wilmington Health Center","1925 Tradd Court","Wilmington","NC","28401","US","910-762-5566","34.209004","-77.9273857","https://www.plannedparenthood.org/health-center/north-carolina/wilmington/28401/wilmington-health-center-2595-90860"
"New Albany Health Center","412 New Albany Plaza","New Albany","IN","47150","US","317-205-8088","38.3068779","-85.8383693","https://www.plannedparenthood.org/health-center/indiana/new-albany/47150/new-albany-health-center-2634-91810"
"Oshkosh Health Center","378 S. Koeller St.","Oshkosh","WI","54902","US","920-235-0115","44.0154597","-88.58168320000001","https://www.plannedparenthood.org/health-center/wisconsin/oshkosh/54902/oshkosh-health-center-2583-91860"
"Vienna Health Center","522 Grand Central Ave.","Vienna","WV","26105","US","304-295-3331","39.3038762","-81.54911209999999","https://www.plannedparenthood.org/health-center/west-virginia/vienna/26105/vienna-health-center-2893-90860"
"Toledo Health Center","1301 Jefferson Ave","Toledo","OH","43604","US","419-255-1115","41.6538683","-83.54455619999999","https://www.plannedparenthood.org/health-center/ohio/toledo/43604/toledo-health-center-3345-91230"
"Metro West Health Center","91 Main Street","Marlborough","MA","1752","US","800-258-4448","42.34732","-71.54601459999999","https://www.plannedparenthood.org/health-center/massachusetts/marlborough/01752/metro-west-health-center-3951-90610"
"Pasco Health Center","3901 W. Court St.","Pasco","WA","99301","US","866-904-7721","46.242114","-119.14236599999998","https://www.plannedparenthood.org/health-center/washington/pasco/99301/pasco-health-center-3971-91850"
"Media Health Center","216 W State Street","Media","PA","19063","US","610-566-2830","39.9181949","-75.3927323","https://www.plannedparenthood.org/health-center/pennsylvania/media/19063/media-health-center-2338-91460"
"North Austin Health Center","9041 Research #250","Austin","TX","78758","US","512-331-1288","30.3737166","-97.7255182","https://www.plannedparenthood.org/health-center/texas/austin/78758/north-austin-health-center-2398-91620"
"Raleigh Health Center","100 S Boylan Ave.","Raleigh","NC","27603","US","919-833-7526","35.7797597","-78.6494882","https://www.plannedparenthood.org/health-center/north-carolina/raleigh/27603/raleigh-health-center-3338-90860"
"Planned Parenthood - Brownsville","870 E. Alton Gloor Blvd.","Brownsville","TX","78526","US","956-546-4571","25.978752199999995","-97.5038158","https://www.plannedparenthood.org/health-center/texas/brownsville/78526/planned-parenthood-brownsville-3342-91710"
"West Hartford Center","1030 New Britain Ave","West Hartford","CT","6110","US","860-953-6201","41.7305267","-72.72398329999999","https://www.plannedparenthood.org/health-center/connecticut/west-hartford/06110/west-hartford-center-2216-90220"
"Norwich Center","12 Case Street","Norwich","CT","6360","US","860-889-5211","41.55390619999999","-72.1036719","https://www.plannedparenthood.org/health-center/connecticut/norwich/06360/norwich-center-2217-90220"
"Stamford Center","35 Sixth Street","Stamford","CT","6902","US","203-327-2722","41.05632779999999","-73.5182201","https://www.plannedparenthood.org/health-center/connecticut/stamford/06902/stamford-center-2536-90220"
"Allentown Medical Center","29 North Ninth Street","Allentown","PA","18101","US","610-439-1033","40.6022","-75.47556399999999","https://www.plannedparenthood.org/health-center/pennsylvania/allentown/18101/allentown-medical-center-2723-91410"
"New Haven Center","345 Whitney Ave","New Haven","CT","6511","US","203-503-0450","41.3198339","-72.9182859","https://www.plannedparenthood.org/health-center/connecticut/new-haven/06511/new-haven-center-3271-90220"
"Virginia Beach Health Center","515 Newtown Road","Virginia Beach","VA","23462","US","757-499-7526","36.85723000000001","-76.17746499999998","https://www.plannedparenthood.org/health-center/virginia/virginia-beach/23462/virginia-beach-health-center-4166-91750"
"York Medical Center","728 South Beaver St","York","PA","17401","US","717-845-9681","39.95241750000001","-76.7251917","https://www.plannedparenthood.org/health-center/pennsylvania/york/17401/york-medical-center-3786-91410"
"Milwaukee-Lincoln Plaza Health Center","2239 S 108th Street","West Allis","WI","53227","US","414-541-2772","43.0035476","-88.04791150000001","https://www.plannedparenthood.org/health-center/wisconsin/west-allis/53227/milwaukee-lincoln-plaza-health-center-2822-91860"
"Biddeford Health Center","275 Main St, Suite 102","Biddeford","ME","4005","US","207-282-6620","43.48572670000001","-70.4983211","https://www.plannedparenthood.org/health-center/maine/biddeford/04005/biddeford-health-center-2943-91770"
"Burbank Health Center","916 W Burbank Blvd. #M","Burbank","CA","91506","US","800-576-5544","34.1835718","-118.3222662","https://www.plannedparenthood.org/health-center/california/burbank/91506/burbank-health-center-2236-90070"
"East Los Angeles Health Center","5068 Whittier Blvd.","Los Angeles","CA","90022","US","800-576-5544","34.020852","-118.1604277","https://www.plannedparenthood.org/health-center/california/los-angeles/90022/east-los-angeles-health-center-3375-90070"
"Lancaster Medical Center","31 South Lime Street","Lancaster","PA","17602","US","717-299-2891","40.0375251","-76.3007121","https://www.plannedparenthood.org/health-center/pennsylvania/lancaster/17602/lancaster-medical-center-2687-91410"
"Saratoga Springs Center","236 Washington Street","Saratoga Springs","NY","12866","US","518-584-0041","43.0795502","-73.8012735","https://www.plannedparenthood.org/health-center/new-york/saratoga-springs/12866/saratoga-springs-center-2776-91110"
"Charlotte Health Center","700 South Torrence Street","Charlotte","NC","28204","US","704-536-7233","35.1990827","-80.7665524","https://www.plannedparenthood.org/health-center/north-carolina/charlotte/28204/charlotte-health-center-2703-90860"
"West Valley Health Center","1906 West 3600 South","West Valley City","UT","84119","US","801-973-9675","40.6947011","-111.94292129999998","https://www.plannedparenthood.org/health-center/utah/west-valley-city/84119/west-valley-health-center-3568-91730"
"Milwaukee - Capitol Drive Health Center","801 East Capitol Drive","Milwaukee","WI","53212","US","414-967-4945","43.0882799","-87.9004256","https://www.plannedparenthood.org/health-center/wisconsin/milwaukee/53212/milwaukee-capitol-drive-health-center-3488-91860"
"Riverhead Center","877 E Main Street - Suite 109","Riverhead","NY","11901","US","631-369-0230","40.919665","-72.6550027","https://www.plannedparenthood.org/health-center/new-york/riverhead/11901/riverhead-center-4264-91220"
"White Plains Center","175 Tarrytown Road","White Plains","NY","10607","US","914-761-6566","41.0403161","-73.78863480000001","https://www.plannedparenthood.org/health-center/new-york/white-plains/10607/white-plains-center-2203-91220"
"Flint Health Center","G-3371 Beecher Road","Flint","MI","48532","US","810-238-3631","43.01609090000001","-83.745863","https://www.plannedparenthood.org/health-center/michigan/flint/48532/flint-health-center-3298-90630"
"Kalamazoo Health Center","4201 W Michigan Ave","Kalamazoo","MI","49006","US","269-372-1200","42.2766286","-85.6409854","https://www.plannedparenthood.org/health-center/michigan/kalamazoo/49006/kalamazoo-health-center-3299-90630"
"Petoskey Health Center","1003 Spring St.","Petoskey","MI","49770","US","231-347-9692","45.36387499999999","-84.970457","https://www.plannedparenthood.org/health-center/michigan/petoskey/49770/petoskey-health-center-2918-90630"
"Norristown Abortion Center","1221 Powell Street","Norristown","PA","19401","US","610-279-6095","40.1234663","-75.3372924","https://www.plannedparenthood.org/health-center/pennsylvania/norristown/19401/norristown-abortion-center-3952-91460"
"Locust Street Surgical Center","1144 Locust Street","Philadelphia","PA","19107","US","215-351-5550","39.9476224","-75.1606336","https://www.plannedparenthood.org/health-center/pennsylvania/philadelphia/19107/locust-street-surgical-center-3360-91460"
"Reproductive Health Services of PPSLR","4251 Forest Park Avenue","Saint Louis","MO","63108","US","314-531-7526","38.6370474","-90.25122720000002","https://www.plannedparenthood.org/health-center/missouri/saint-louis/63108/reproductive-health-services-of-ppslr-3302-1169"
"Decatur Health Center","3021 N Oakland Ave","Decatur","IL","62526","US","217-877-6474","39.87721679999999","-88.97431589999998","https://www.plannedparenthood.org/health-center/illinois/decatur/62526/decatur-health-center-3282-90430"
"Planned Parenthood Center for Choice Ambulatory Surgical Center (Abortion)","4600 Gulf Freeway, Ste.300","Houston","TX","77023","US","713-535-2400","29.7256613","-95.3347957","https://www.plannedparenthood.org/health-center/texas/houston/77023/planned-parenthood-center-for-choice-ambulatory-surgical-center-abortion-2292-91651"
"Alamosa","1560 12th Street #7","Alamosa","CO","81101","US","719-589-4906","37.4601344","-105.8701672","https://www.plannedparenthood.org/health-center/colorado/alamosa/81101/alamosa-2153-90210"
"Mount Vernon Center","6 Gramatan Avenue, 4th Floor","Mount Vernon","NY","10550","US","914-668-7927","40.9124845","-73.8376727","https://www.plannedparenthood.org/health-center/new-york/mount-vernon/10550/mount-vernon-center-2204-91220"
"New London Center","45 Franklin Street","New London","CT","6320","US","860-443-5820","41.3550678","-72.101972","https://www.plannedparenthood.org/health-center/connecticut/new-london/06320/new-london-center-2223-90220"
"Charlottesville Health Center","2964 Hydraulic Road","Charlottesville","VA","22901","US","434-296-1000","38.0813221","-78.4920603","https://www.plannedparenthood.org/health-center/virginia/charlottesville/22901/charlottesville-health-center-2815-90860"
"Torrington Center","249 Winsted Road","Torrington","CT","6790","US","860-489-5500","41.823486200000005","-73.11757709999999","https://www.plannedparenthood.org/health-center/connecticut/torrington/06790/torrington-center-2222-90220"
"Meriden Center","26 Women's Way","Meriden","CT","6451","US","203-238-0542","41.5427267","-72.7988815","https://www.plannedparenthood.org/health-center/connecticut/meriden/06451/meriden-center-2543-90220"
"Las Vegas West Charleston","3220 W Charleston Blvd.","Las Vegas","NV","89102","US","702-878-7776","36.1594416","-115.18593520000002","https://www.plannedparenthood.org/health-center/nevada/las-vegas/89102/las-vegas-west-charleston-2304-90210"
"First Avenue Specialty Services Michelle Wagner Center","2017 First Avenue","San Diego","CA","92101","US","888-743-7526","32.726452","-117.163608","https://www.plannedparenthood.org/health-center/california/san-diego/92101/first-avenue-specialty-services-michelle-wagner-center-4036-90110"
"Spring Valley Center","25 Perlman Drive","Spring Valley","NY","10977","US","845-426-7577","41.1058187","-74.03202529999999","https://www.plannedparenthood.org/health-center/new-york/spring-valley/10977/spring-valley-center-2226-91220"
"Rochester Health Center","1212 7th St. NW","Rochester","MN","55901","US","507-288-5186","44.0315747","-92.4805051","https://www.plannedparenthood.org/health-center/minnesota/rochester/55901/rochester-health-center-2799-90720"
"Manchester Center","319B Main Street","Manchester","CT","6040","US","860-643-1607","41.782268","-72.5223318","https://www.plannedparenthood.org/health-center/connecticut/manchester/06040/manchester-center-2221-90220"
"Hartford North Center","1229 Albany Avenue","Hartford","CT","6112","US","860-728-0203","41.782142","-72.6972373","https://www.plannedparenthood.org/health-center/connecticut/hartford/06112/hartford-north-center-2220-90220"
"Providence Health Center","175 Broad Street","Providence","RI","2903","US","401-421-9620","41.816628","-71.407959","https://www.plannedparenthood.org/health-center/rhode-island/providence/02903/providence-health-center-3362-90220"
"Hampton Health Center","403 Yale Drive","Hampton","VA","23666","US","757-826-2079","37.030742","-76.4235893","https://www.plannedparenthood.org/health-center/virginia/hampton/23666/hampton-health-center-4164-91750"
"Gaithersburg Center","19650 Clubhouse Road #101","Gaithersburg","MD","20886","US","301-208-1300","39.17367","-77.2069099","https://www.plannedparenthood.org/health-center/maryland/gaithersburg/20886/gaithersburg-center-2493-90230"
"Smithtown Center","70 Maple Ave","Smithtown","NY","11787","US","631-361-7526","40.8530327","-73.1979301","https://www.plannedparenthood.org/health-center/new-york/smithtown/11787/smithtown-center-2320-91220"
"West Islip Center","180 Sunrise Highway","West Islip","NY","11795","US","631-893-0150","40.71841","-73.3063306","https://www.plannedparenthood.org/health-center/new-york/west-islip/11795/west-islip-center-2316-91220"
"Columbia Health Center","2712 Middleburg Drive Suite 107","Columbia","SC","29204","US","803-256-4908","34.015115","-81.003383","https://www.plannedparenthood.org/health-center/south-carolina/columbia/29204/columbia-health-center-2646-90860"
"Patchogue Center","450 Waverly Ave","Patchogue","NY","11772","US","631-475-5705","40.7796049","-73.0351985","https://www.plannedparenthood.org/health-center/new-york/patchogue/11772/patchogue-center-2317-91220"
"Huntington Center","755 New York Ave","Huntington","NY","11743","US","631-427-7154","40.8601109","-73.4206995","https://www.plannedparenthood.org/health-center/new-york/huntington/11743/huntington-center-2318-91220"
"Yonkers Center","20 S Broadway","Yonkers","NY","10701","US","914-965-1912","40.9330769","-73.8983812","https://www.plannedparenthood.org/health-center/new-york/yonkers/10701/yonkers-center-2202-91220"
"Danbury Center","44 Main Street","Danbury","CT","6810","US","203-743-2446","41.3885536","-73.44665579999999","https://www.plannedparenthood.org/health-center/connecticut/danbury/06810/danbury-center-2539-90220"
"Planned Parenthood  Prince George's County","5001 Silver Hill Road Suite #103","Suitland","MD","20746","US","240-563-1220","38.850421","-76.92157","https://www.plannedparenthood.org/health-center/maryland/suitland/20746/planned-parenthood-prince-georges-county-4198-90230"
"Enfield Center","111 Hazard Ave.","Enfield","CT","6082","US","860-741-2197","41.9889942","-72.56494349999998","https://www.plannedparenthood.org/health-center/connecticut/enfield/06082/enfield-center-2219-90220"
"Waterbury Center","617 Watertown Avenue","Waterbury","CT","6708","US","203-753-2119","41.5685576","-73.061488","https://www.plannedparenthood.org/health-center/connecticut/waterbury/06708/waterbury-center-2540-90220"
"Willimantic Center","1548 W Main Street","Willimantic","CT","6226","US","860-423-8426","41.7196131","-72.2363354","https://www.plannedparenthood.org/health-center/connecticut/willimantic/06226/willimantic-center-2224-90220"
"Metro Health Center","160 South 1000 East, Suite 120","Salt Lake City","UT","84102","US","801-257-6789","40.7657999","-111.8628122","https://www.plannedparenthood.org/health-center/utah/salt-lake-city/84102/metro-health-center-3958-91730"
"Rancho Mirage Surgical Services Center","71777 San Jacinto Drive, Suite 202","Rancho Mirage","CA","92270","US","888-743-7526","33.743704","-116.412801","https://www.plannedparenthood.org/health-center/california/rancho-mirage/92270/rancho-mirage-surgical-services-center-3267-90110"
"Baldwin Park Center","4070 Sterling Way","Baldwin Park","CA","91706","US","626-798-0706","34.0849047","-117.96210580000002","https://www.plannedparenthood.org/health-center/california/baldwin-park/91706/baldwin-park-center-9990-90090"
"Albany Health Center","855 Central Ave.","Albany","NY","12206","US","518-434-5678","42.6806801","-73.7887699","https://www.plannedparenthood.org/health-center/new-york/albany/12206/albany-health-center-3336-91020"
"Manhattan Health Center","26 Bleecker Street","New York","NY","10012","US","212-965-7000","40.725395","-73.993644","https://www.plannedparenthood.org/health-center/new-york/new-york/10012/manhattan-health-center-3325-91110"
"Alhambra Health Center","330 S. Garfield Avenue, 3rd Fl. - Suite 300","Alhambra","CA","91801","US","626-798-0706","34.0914979","-118.1236509","https://www.plannedparenthood.org/health-center/california/alhambra/91801/alhambra-health-center-3561-90090"
"Pasadena Health Center","1045 N. Lake Ave.","Pasadena","CA","91104","US","626-798-0706","34.1639179","-118.1329094","https://www.plannedparenthood.org/health-center/california/pasadena/91104/pasadena-health-center-3265-90090"
"North Tampa Health Center","236 E. Bearss Avenue","Tampa","FL","33613","US","813-443-9694","28.0890202","-82.4584567","https://www.plannedparenthood.org/health-center/florida/tampa/33613/north-tampa-health-center-4274-90300"
"Fort Myers Health Center","6418 Commerce Park Drive","Fort Myers","FL","33966","US","239-481-9999","26.5560253","-81.8966514","https://www.plannedparenthood.org/health-center/florida/fort-myers/33966/fort-myers-health-center-2505-90300"
"Sarasota Health Center","736 Central Avenue","Sarasota","FL","34236","US","941-953-4060","27.3429529","-82.54247219999999","https://www.plannedparenthood.org/health-center/florida/sarasota/34236/sarasota-health-center-2189-90300"
"Glen Cove Center","110 School Street","Glen Cove","NY","11542","US","516-750-2500","40.8679585","-73.630426","https://www.plannedparenthood.org/health-center/new-york/glen-cove/11542/glen-cove-center-2787-91110"
"Aurora","1284 S. Abilene St","Aurora","CO","80012","US","303-671-7526","39.693083","-104.8278313","https://www.plannedparenthood.org/health-center/colorado/aurora/80012/aurora-2489-90210"
"Fayetteville Health Center","4551 Yadkin Rd","Fayetteville","NC","28303","US","866-942-7762","35.079286","-78.959451","https://www.plannedparenthood.org/health-center/north-carolina/fayetteville/28303/fayetteville-health-center-4173-90860"
"Cincinnati Surgical Center","2314 Auburn Avenue","Cincinnati","OH","45219","US","513-287-6488","39.12364900000001","-84.507931","https://www.plannedparenthood.org/health-center/ohio/cincinnati/45219/cincinnati-surgical-center-3347-91260"
"Hudson Health Center","804 Columbia Street","Hudson","NY","12534","US","518-828-4675","42.25852999999999","-73.766663","https://www.plannedparenthood.org/health-center/new-york/hudson/12534/hudson-health-center-2380-91020"
"Troy Health Center","120 Hoosick Street","Troy","NY","12180","US","518-434-5678","42.73911","-73.67626","https://www.plannedparenthood.org/health-center/new-york/troy/12180/troy-health-center-2780-91020"
"San Bernardino Health Center","1873 S. Commercenter Dr. W.","San Bernardino","CA","92408","US","909-890-5511","34.0677945","-117.2856447","https://www.plannedparenthood.org/health-center/california/san-bernardino/92408/san-bernardino-health-center-2282-90160"
"Hempstead Center","540 Fulton Ave","Hempstead","NY","11550","US","516-750-2500","40.7098457","-73.61277589999999","https://www.plannedparenthood.org/health-center/new-york/hempstead/11550/hempstead-center-3321-91110"
"Kahului Health Center","140 Hoohana Street, Suite 303  Maui","Kahului","HI","96732","US","800-769-0045","20.8882346","-156.464579","https://www.plannedparenthood.org/health-center/hawaii/kahului/96732/kahului-health-center-2950-91810"
"Southwest Fort Worth Abortion Services Center","6464 John Ryan Drive - Suite A","Fort Worth","TX","76132","US","817-277-6610","32.6551962","-97.42075590000002","https://www.plannedparenthood.org/health-center/texas/fort-worth/76132/southwest-fort-worth-abortion-services-center-4251-21342"
"Burlington Health Center","173 Saint Paul Street","Burlington","VT","5401","US","802-863-6326","44.474397","-73.2141819","https://www.plannedparenthood.org/health-center/vermont/burlington/05401/burlington-health-center-2650-91770"
"Asheville Health Center","68 McDowell St","Asheville","NC","28801","US","828-252-7928","35.5821404","-82.5537998","https://www.plannedparenthood.org/health-center/north-carolina/asheville/28801/asheville-health-center-4134-90860"
"Amsterdam Center","4803 State Highway/30 KEM Plaza","Amsterdam","NY","12010","US","518-842-0285","42.9377453","-74.190356","https://www.plannedparenthood.org/health-center/new-york/amsterdam/12010/amsterdam-center-3047-91110"
"Orange Health Center","700 S. Tustin St.","Orange","CA","92866","US","714-922-4100","33.7768704","-117.836437","https://www.plannedparenthood.org/health-center/california/orange/92866/orange-health-center-3264-90160"
"Naples Center","1425 Creech Road","Naples","FL","34103","US","239-262-0301","26.1824425","-81.79223039999998","https://www.plannedparenthood.org/health-center/florida/naples/34103/naples-center-3294-90300"
"Little Rock Aldersgate Road Health Center","1501 Aldersgate Rd.","Little Rock","AR","72205","US","501-666-7526","34.7399996","-92.3895053","https://www.plannedparenthood.org/health-center/arkansas/little-rock/72205/little-rock-aldersgate-road-health-center-9998-90740"
"Portland Health Center","443 Congress Street","Portland","ME","4101","US","207-797-8881","43.6580091","-70.2588201","https://www.plannedparenthood.org/health-center/maine/portland/04101/portland-health-center-2940-91770"
"South Dallas Abortion Services Center","7989 West Virginia Drive","Dallas","TX","75237","US","214-373-1868","32.649226","-96.876395","https://www.plannedparenthood.org/health-center/texas/dallas/75237/south-dallas-abortion-services-center-4149-21342"
"El Paso Abortion Services Center","1511 E. Missouri Avenue","El Paso","TX","79902","US","915-626-5192","31.7705209","-106.4766214","https://www.plannedparenthood.org/health-center/texas/el-paso/79902/el-paso-abortion-services-center-4285-21342"
"Manchester Health Center","24 Pennacook Street","Manchester","NH","3104","US","603-669-7321","43.0016515","-71.4631639","https://www.plannedparenthood.org/health-center/new-hampshire/manchester/03104/manchester-health-center-2740-91770"
"Pomona Health Center","1550 N Garey Avenue","Pomona","CA","91767","US","800-576-5544","34.073586","-117.75182999999998","https://www.plannedparenthood.org/health-center/california/pomona/91767/pomona-health-center-2208-90070"
"Kissimmee Health Center","610 Oak Commons Blvd.","Kissimmee","FL","34741","US","407-246-1788","28.301567","-81.410649","https://www.plannedparenthood.org/health-center/florida/kissimmee/34741/kissimmee-health-center-4144-90300"
"West Hollywood Health Center","869 Westbourne Dr.","West Hollywood","CA","90069","US","800-576-5544","34.086775","-118.379971","https://www.plannedparenthood.org/health-center/california/west-hollywood/90069/west-hollywood-health-center-4187-90070"
"Madison East","3706 Orin Road","Madison","WI","53704","US","608-241-3767","43.1233042","-89.3241652","https://www.plannedparenthood.org/health-center/wisconsin/madison/53704/madison-east-2733-91860"
"Warminster Medical Center","610 Louis Drive","Warminster","PA","18974","US","215-957-7980","40.2011433","-75.086492","https://www.plannedparenthood.org/health-center/pennsylvania/warminster/18974/warminster-medical-center-2510-91410"
"Van Nuys Health Center","7100 Van Nuys Blvd. #108","Van Nuys","CA","91405","US","800-576-5544","34.1994892","-118.44800600000002","https://www.plannedparenthood.org/health-center/california/van-nuys/91405/van-nuys-health-center-2234-90070"
"Susie and John Stanley Health Center at Reading","1920 Kutztown Road","Reading","PA","19604","US","610-376-8061","40.3642526","-75.9201033","https://www.plannedparenthood.org/health-center/pennsylvania/reading/19604/susie-and-john-stanley-health-center-at-reading-2725-91410"
"El Monte Health Center","4786 N. Peck Road, Ste. B","El Monte","CA","91732","US","800-576-5544","34.090169","-118.0137342","https://www.plannedparenthood.org/health-center/california/el-monte/91732/el-monte-health-center-2322-90070"
"Lakewood Health Center","5525 E Del Amo Blvd.","Lakewood","CA","90713","US","800-576-5544","33.8474006","-118.1241151","https://www.plannedparenthood.org/health-center/california/lakewood/90713/lakewood-health-center-2359-90070"
"Canoga Park Health Center","21001 Sherman Way #9","Canoga Park","CA","91303","US","800-576-5544","34.2019201","-118.5909021","https://www.plannedparenthood.org/health-center/california/canoga-park/91303/canoga-park-health-center-2235-90070"
"South San Francisco Health Center","435 Grand Avenue","South San Francisco","CA","94080","US","877-855-7526","37.6557024","-122.4139958","https://www.plannedparenthood.org/health-center/california/south-san-francisco/94080/south-san-francisco-health-center-4255-90130"
"Concord Health Center","2185 Pacheco Street","Concord","CA","94520","US","925-676-0300","37.9789538","-122.03452040000002","https://www.plannedparenthood.org/health-center/california/concord/94520/concord-health-center-3269-90200"
"North Stockton Health Center","4555 Precissi Lane","Stockton","CA","95207","US","209-477-4103","37.989118","-121.31535630000002","https://www.plannedparenthood.org/health-center/california/stockton/95207/north-stockton-health-center-2528-90130"
"Gilroy Health Center","760 Renz Lane","Gilroy","CA","95020","US","408-847-1739","37.004138","-121.5558983","https://www.plannedparenthood.org/health-center/california/gilroy/95020/gilroy-health-center-2433-90130"
"Santa Rosa Health Center","1140 Sonoma Avenue Building 3","Santa Rosa","CA","95405","US","707-527-7656","38.4409226","-122.6997185","https://www.plannedparenthood.org/health-center/california/santa-rosa/95405/santa-rosa-health-center-3990-90200"
"Delran","8008 Route 130N","Delran","NJ","8075","US","609-788-3195","40.0235363","-74.9376676","https://www.plannedparenthood.org/health-center/new-jersey/delran/08075/delran-4147-90900"
"Santa Monica Health Center","1316 3rd Street Promenade #201","Santa Monica","CA","90401","US","800-576-5544","34.0164535","-118.4975694","https://www.plannedparenthood.org/health-center/california/santa-monica/90401/santa-monica-health-center-2476-90070"
"Dorothy Hecht Health Center","8520 So. Broadway","Los Angeles","CA","90003","US","800-576-5544","33.9609414","-118.2778463","https://www.plannedparenthood.org/health-center/california/los-angeles/90003/dorothy-hecht-health-center-2465-90070"
"Jones Center","7655 Greenleaf Ave","Whittier","CA","90602","US","800-576-5544","33.97205240000001","-118.03767109999998","https://www.plannedparenthood.org/health-center/california/whittier/90602/jones-center-2358-90070"
"Madison South Health Center","2222 S. Park Street Suite 210","Madison","WI","53713","US","608-251-6546","43.041466","-89.394482","https://www.plannedparenthood.org/health-center/wisconsin/madison/53713/madison-south-health-center-3937-91860"
"Bend Health Center","2330 NE Division St., Suite 7","Bend","OR","97703","US","888-875-7820","44.0730574","-121.305137","https://www.plannedparenthood.org/health-center/oregon/bend/97703/bend-health-center-2373-91400"
"Sioux Falls Health Center","6511 West 41st Street","Sioux Falls","SD","57106","US","605-361-5100","43.5144915","-96.8078434","https://www.plannedparenthood.org/health-center/south-dakota/sioux-falls/57106/sioux-falls-health-center-2738-90720"
"Southside Health Center","935 E Hanna Ave","Indianapolis","IN","46227","US","317-205-8088","39.7078247","-86.1433537","https://www.plannedparenthood.org/health-center/indiana/indianapolis/46227/southside-health-center-2872-91810"
"City Heights Center","4305 University Avenue, #350","San Diego","CA","92105","US","888-743-7526","32.749440199999995","-117.101449","https://www.plannedparenthood.org/health-center/california/san-diego/92105/city-heights-center-3075-90110"
"Springfield Health Center","601 N. Bruns","Springfield","IL","62702","US","217-546-1060","39.80857239999999","-89.6877093","https://www.plannedparenthood.org/health-center/illinois/springfield/62702/springfield-health-center-3284-90430"
"Lowville Center","7398 Turin Rd","Lowville","NY","13367","US","315-804-6174","43.776578","-75.4789356","https://www.plannedparenthood.org/health-center/new-york/lowville/13367/lowville-center-2882-91210"
"North County Health Center","Surrey Plaza II, 2782 North Hwy 67","Florissant","MO","63033","US","314-921-4445","38.8005339","-90.2883211","https://www.plannedparenthood.org/health-center/missouri/florissant/63033/north-county-health-center-2886-90770"
"Montclair Center","29 N Fullerton Ave","Montclair","NJ","7042","US","973-746-7116","40.8149109","-74.216464","https://www.plannedparenthood.org/health-center/new-jersey/montclair/07042/montclair-center-2550-90920"
"Imperial Valley Health Center","1463 South 4th Street","El Centro","CA","92243","US","760-594-9100","32.78033359999999","-115.55237030000002","https://www.plannedparenthood.org/health-center/california/el-centro/92243/imperial-valley-health-center-4182-90110"
"Milwaukie-Oak Grove Health Center","14411 SE McLoughlin Blvd","Milwaukie","OR","97267","US","888-875-7820","45.4190627","-122.6333387","https://www.plannedparenthood.org/health-center/oregon/milwaukie/97267/milwaukie-oak-grove-health-center-4195-91400"
"Near North: Elizabeth Cohn Morris Health Center","1200 N LaSalle Street","Chicago","IL","60610","US","312-266-1033","41.9040395","-87.6331708","https://www.plannedparenthood.org/health-center/illinois/chicago/60610/near-north-elizabeth-cohn-morris-health-center-2474-90430"
"Somerset Health Center","118 South Kimberly Ave, Ste. 201","Somerset","PA","15501","US","814-443-6549","40.0082384","-79.0764336","https://www.plannedparenthood.org/health-center/pennsylvania/somerset/15501/somerset-health-center-2633-91470"
"Greater Boston Health Center","1055 Commonwealth Avenue","Boston","MA","2215","US","800-258-4448","42.352619","-71.12287399999998","https://www.plannedparenthood.org/health-center/massachusetts/boston/02215/greater-boston-health-center-3293-90610"
"Beaverton Health Center","12220 SW First St., Suite 200","Beaverton","OR","97005","US","888-875-7820","45.4858639","-122.8024191","https://www.plannedparenthood.org/health-center/oregon/beaverton/97005/beaverton-health-center-2410-91400"
"Pottstown Health Center","2081 E. High Street","Pottstown","PA","19464","US","610-326-8080","40.2444989","-75.6045445","https://www.plannedparenthood.org/health-center/pennsylvania/pottstown/19464/pottstown-health-center-2340-91460"
"New Orleans Health Center","4636 S Claiborne Ave","New Orleans","LA","70125","US","504-897-9200","29.9566647","-90.1073935","https://www.plannedparenthood.org/health-center/louisiana/new-orleans/70125/new-orleans-health-center-3961-91650"
"Cedar Rapids Health Center","3425 First Ave SE, Suite 100","Cedar Rapids","IA","52402","US","877-811-7526","42.0131449","-91.63411449999998","https://www.plannedparenthood.org/health-center/iowa/cedar-rapids/52402/cedar-rapids-health-center-3969-90380"
"Central Massachusetts Health Center","470 Pleasant Street","Worcester","MA","1609","US","800-258-4448","42.2631817","-71.8181417","https://www.plannedparenthood.org/health-center/massachusetts/worcester/01609/central-massachusetts-health-center-2660-90610"
"Western Massachusetts Health Center","3550 Main Street, Suite 201","Springfield","MA","1107","US","800-258-4448","42.1257438","-72.612091","https://www.plannedparenthood.org/health-center/massachusetts/springfield/01107/western-massachusetts-health-center-2662-90610"
"Alexandria Health Center","700 Cedar Street Suite 165","Alexandria","MN","56308","US","320-762-0766","45.8848136","-95.3836958","https://www.plannedparenthood.org/health-center/minnesota/alexandria/56308/alexandria-health-center-2858-90720"
"Waldorf Health Center","3975 St. Charles Parkway","Waldorf","MD","20602","US","410-576-1414","38.6138153","-76.8816118","https://www.plannedparenthood.org/health-center/maryland/waldorf/20602/waldorf-health-center-2900-90620"
"Capitol Plaza Health Center","1125 10th Street","Sacramento","CA","95814","US","916-444-7966","38.5788566","-121.4940692","https://www.plannedparenthood.org/health-center/california/sacramento/95814/capitol-plaza-health-center-2199-90130"
"St. Johnsbury Health Center","501 Portland St","Saint Johnsbury","VT","5819","US","802-751-7821","44.4211084","-72.005776","https://www.plannedparenthood.org/health-center/vermont/saint-johnsbury/05819/st-johnsbury-health-center-4092-91770"
"Lorain Health Center","200 W. 9th Street","Lorain","OH","44052","US","440-242-2087","41.4630986","-82.173825","https://www.plannedparenthood.org/health-center/ohio/lorain/44052/lorain-health-center-3436-91230"
"Upper Darby Health Center","7200 Chestnut Street","Upper Darby","PA","19082","US","610-626-9482","39.9594096","-75.2633307","https://www.plannedparenthood.org/health-center/pennsylvania/upper-darby/19082/upper-darby-health-center-4094-91460"
"Mishawaka Health Center","3005 Grape Rd.","Mishawaka","IN","46545","US","317-205-8088","41.6878428","-86.1874826","https://www.plannedparenthood.org/health-center/indiana/mishawaka/46545/mishawaka-health-center-2758-91810"
"Kenosha Health Center","3601 Roosevelt Road","Kenosha","WI","53142","US","262-654-0491","42.567906","-87.8520243","https://www.plannedparenthood.org/health-center/wisconsin/kenosha/53142/kenosha-health-center-2903-91860"
"Planned Parenthood Basics, Baldwin Hills/Crenshaw","3637 S. La Brea Ave","Los Angeles","CA","90016","US","800-576-5544","34.0205676","-118.355621","https://www.plannedparenthood.org/health-center/california/los-angeles/90016/planned-parenthood-basics-baldwin-hillscrenshaw-3939-90070"
"Harrisburg Medical Center","1514 North Second Street","Harrisburg","PA","17102","US","717-234-2468","40.2708669","-76.89362469999999","https://www.plannedparenthood.org/health-center/pennsylvania/harrisburg/17102/harrisburg-medical-center-3357-91410"
"Farmington","1308 E. 20th Street","Farmington","NM","87401","US","505-327-0451","36.7486007","-108.1907228","https://www.plannedparenthood.org/health-center/new-mexico/farmington/87401/farmington-2407-90210"
"Delavan Health Center","312 South 7th Street","Delavan","WI","53115","US","262-728-1849","42.6290304","-88.6379314","https://www.plannedparenthood.org/health-center/wisconsin/delavan/53115/delavan-health-center-2902-91860"
"Memphis Health Center near Summer and I240","835 Virginia Run Cove","Memphis","TN","38122","US","866-711-1717","35.15678","-89.88232199999999","https://www.plannedparenthood.org/health-center/tennessee/memphis/38122/memphis-health-center-near-summer-and-i240-4247-91550"
"Wilkes-Barre Medical Center","101 N. Main Street","Wilkes-Barre","PA","18701","US","570-824-8921","41.2479187","-75.87809279999999","https://www.plannedparenthood.org/health-center/pennsylvania/wilkes-barre/18701/wilkes-barre-medical-center-2761-91410"
"Bedford Heights Health Center","25350 Rockside Rd","Bedford Heights","OH","44146","US","440-232-8381","41.409114","-81.49970599999999","https://www.plannedparenthood.org/health-center/ohio/bedford-heights/44146/bedford-heights-health-center-4041-91230"
"Fort Wayne Health Center","2930 Lake Avenue.","Ft Wayne","IN","46805","US","317-205-8088","41.0897226","-85.1005543","https://www.plannedparenthood.org/health-center/indiana/ft-wayne/46805/fort-wayne-health-center-2907-91810"
"Cedar Falls Center","2520 Melrose Drive, Suite L","Cedar Falls","IA","50613","US","877-811-7526","42.5142585","-92.4308363","https://www.plannedparenthood.org/health-center/iowa/cedar-falls/50613/cedar-falls-center-2866-90380"
"Lafayette Health Center","964 Mezzanine Dr.","Lafayette","IN","47905","US","317-205-8088","40.4046629","-86.8331324","https://www.plannedparenthood.org/health-center/indiana/lafayette/47905/lafayette-health-center-2669-91810"
"Mary Ruth Duncan Health Center","700 West Highway 6 Suite B","Waco","TX","76712","US","254-759-5750","31.5176122","-97.2043276","https://www.plannedparenthood.org/health-center/texas/waco/76712/mary-ruth-duncan-health-center-4284-91620"
"Dayton Health Center","224 N Wilkinson Street","Dayton","OH","45402","US","937-226-0780","39.7626871","-84.19604929999998","https://www.plannedparenthood.org/health-center/ohio/dayton/45402/dayton-health-center-2192-91260"
"Iowa City Health Center","850 Orchard Street","Iowa City","IA","52246","US","877-811-7526","41.6493748","-91.5410302","https://www.plannedparenthood.org/health-center/iowa/iowa-city/52246/iowa-city-health-center-2470-90380"
"Winston-Salem Health Center","3000 Maplewood Ave, Ste. 112","Winston-Salem","NC","27103","US","336-768-2980","36.0798417","-80.2930721","https://www.plannedparenthood.org/health-center/north-carolina/winston-salem/27103/winston-salem-health-center-2845-90860"
"Claremont Health Center","136 Pleasant St.","Claremont","NH","3743","US","603-542-4568","43.3680472","-72.3406783","https://www.plannedparenthood.org/health-center/new-hampshire/claremont/03743/claremont-health-center-2741-91770"
"Roanoke Health Center","2207 Peters Creek Road","Roanoke","VA","24017","US","540-562-3457","37.3116822","-80.00597999999998","https://www.plannedparenthood.org/health-center/virginia/roanoke/24017/roanoke-health-center-2768-90860"
"St. George Health Center","595 South Bluff Street Suite 1","Saint George","UT","84770","US","435-674-9933","37.098326","-113.587044","https://www.plannedparenthood.org/health-center/utah/saint-george/84770/st-george-health-center-2813-91730"
"Hattiesburg Center","214 South 27th Avenue","Hattiesburg","MS","39401","US","601-296-6001","31.321822","-89.329781","https://www.plannedparenthood.org/health-center/mississippi/hattiesburg/39401/hattiesburg-center-4078-90330"
"Flagstaff Health Center","2500 S. Woodlands Village Blvd","Flagstaff","AZ","86001","US","928-779-3653","35.1779861","-111.6673313","https://www.plannedparenthood.org/health-center/arizona/flagstaff/86001/flagstaff-health-center-2566-90030"
"College Avenue Sarah Weddington Center","4575 College Ave","San Diego","CA","92115","US","888-743-7526","32.7603302","-117.0665784","https://www.plannedparenthood.org/health-center/california/san-diego/92115/college-avenue-sarah-weddington-center-2324-90110"
"Columbia Health Center","711 N Providence Road","Columbia","MO","65203","US","573-443-0427","38.9598666","-92.3344933","https://www.plannedparenthood.org/health-center/missouri/columbia/65203/columbia-health-center-2760-90740"
"Ames Health Center","2530 Chamberlain Street","Ames","IA","50014","US","877-811-7526","42.0211595","-93.6515217","https://www.plannedparenthood.org/health-center/iowa/ames/50014/ames-health-center-2385-90380"
"Patty Brous Health Center","1001 Emanuel Cleaver II Blvd.","Kansas City","MO","64110","US","816-756-2277","39.0414917","-94.573837","https://www.plannedparenthood.org/health-center/missouri/kansas-city/64110/patty-brous-health-center-2628-90740"
"Mesa Health Center","1235 S. Gilbert Rd.","Mesa","AZ","85204","US","602-277-7526","33.3925436","-111.7867951","https://www.plannedparenthood.org/health-center/arizona/mesa/85204/mesa-health-center-2810-90030"
"Mission Bay Mimi Brien Health Center","4501 Mission Bay Drive","San Diego","CA","92109","US","888-743-7526","32.803351","-117.216278","https://www.plannedparenthood.org/health-center/california/san-diego/92109/mission-bay-mimi-brien-health-center-2330-90110"
"Chula Vista Center","1295 Broadway #201","Chula Vista","CA","91911","US","888-743-7526","32.6039744","-117.0777194","https://www.plannedparenthood.org/health-center/california/chula-vista/91911/chula-vista-center-2328-90110"
"Escondido Center","347 W. Mission Avenue","Escondido","CA","92025","US","888-743-7526","33.12892120000001","-117.08977889999998","https://www.plannedparenthood.org/health-center/california/escondido/92025/escondido-center-2331-90110"
"Kearny Mesa Center","7526 Clairemont Mesa Blvd.","San Diego","CA","92111","US","888-743-7526","32.8334161","-117.1568419","https://www.plannedparenthood.org/health-center/california/san-diego/92111/kearny-mesa-center-2332-90110"
"Glendale Health Center","5771 W. Eugie","Glendale","AZ","85304","US","602-277-7526","33.6083883","-112.1835587","https://www.plannedparenthood.org/health-center/arizona/glendale/85304/glendale-health-center-3963-90030"
"Youngstown Health Center","77 E Midlothian Blvd.","Youngstown","OH","44507","US","330-788-2487","41.060611","-80.658878","https://www.plannedparenthood.org/health-center/ohio/youngstown/44507/youngstown-health-center-2847-91230"
"West Palm Beach Health Center","931 Village Blvd. Suite 904","West Palm Beach","FL","33409","US","561-683-0302","26.7156998","-80.1019729","https://www.plannedparenthood.org/health-center/florida/west-palm-beach/33409/west-palm-beach-health-center-2360-90320"
"Ellensburg Health Center","613 N. Pine St.","Ellensburg","WA","98926","US","866-904-7721","46.9984811","-120.5463627","https://www.plannedparenthood.org/health-center/washington/ellensburg/98926/ellensburg-health-center-2402-91850"
"Towson Health Center","8501 LaSalle Road , Suite 309","Towson","MD","21286","US","410-576-1414","39.3936889","-76.57612739999999","https://www.plannedparenthood.org/health-center/maryland/towson/21286/towson-health-center-2831-90620"
"Georgetown Health Center","8590 Georgetown Road","Indianapolis","IN","46268","US","317-205-8088","39.9102568","-86.2416728","https://www.plannedparenthood.org/health-center/indiana/indianapolis/46268/georgetown-health-center-2870-91810"
"Flossmoor Health Center","19831 Governors Highway","Flossmoor","IL","60422","US","708-960-0907","41.5291999","-87.69751919999999","https://www.plannedparenthood.org/health-center/illinois/flossmoor/60422/flossmoor-health-center-4360-90430"
"St. Petersburg Health Center","33 6th Street South","Saint Petersburg","FL","33701","US","727-898-8199","27.7705596","-82.6420771","https://www.plannedparenthood.org/health-center/florida/saint-petersburg/33701/st-petersburg-health-center-2273-90300"
"Rice Street Health Center - Viking Drive West","91 Viking Drive West","Saint Paul","MN","55117","US","651-489-1328","44.9908014","-93.0962099","https://www.plannedparenthood.org/health-center/minnesota/saint-paul/55117/rice-street-health-center-viking-drive-west-2706-90720"
"Gwinnett Center","798 Lawrenceville Suwanee Road","Lawrenceville","GA","30043","US","404-688-9300","33.9662491","-84.0242886","https://www.plannedparenthood.org/health-center/georgia/lawrenceville/30043/gwinnett-center-2271-90330"
"Ogdensburg Center","419 Ford Street","Ogdensburg","NY","13669","US","315-393-6544","44.6982153","-75.49125399999998","https://www.plannedparenthood.org/health-center/new-york/ogdensburg/13669/ogdensburg-center-2880-91210"
"Champaign Health Center","302 E Stoughton St.","Champaign","IL","61820","US","217-359-8022","40.113729","-88.2351709","https://www.plannedparenthood.org/health-center/illinois/champaign/61820/champaign-health-center-3283-90430"
"Walnut Creek Health Center","1357 Oakland Blvd.","Walnut Creek","CA","94596","US","925-935-3010","37.897068","-122.070055","https://www.plannedparenthood.org/health-center/california/walnut-creek/94596/walnut-creek-health-center-2571-90200"
"Coatesville Health Center","1001 East Lincoln Highway","Coatesville","PA","19320","US","610-383-5911","39.9865624","-75.8054551","https://www.plannedparenthood.org/health-center/pennsylvania/coatesville/19320/coatesville-health-center-2724-91460"
"Mobile Center","717 Downtowner Loop West","Mobile","AL","36609","US","404-688-9300","30.6744998","-88.14400590000001","https://www.plannedparenthood.org/health-center/alabama/mobile/36609/mobile-center-2911-90330"
"Port Angeles Health Center","426 East 8th Street","Port Angeles","WA","98362","US","800-769-0045","48.1101171","-123.432629","https://www.plannedparenthood.org/health-center/washington/port-angeles/98362/port-angeles-health-center-3972-91810"
"Corning Health Center","35 West William Street","Corning","NY","14830","US","607-962-4686","42.1501321","-77.06255069999997","https://www.plannedparenthood.org/health-center/new-york/corning/14830/corning-health-center-2345-91110"
"Fairbanks Health Center","1867 Airport Way, Suite 160B","Fairbanks","AK","99701","US","800-769-0045","64.8356782","-147.7566074","https://www.plannedparenthood.org/health-center/alaska/fairbanks/99701/fairbanks-health-center-2603-91810"
"First Avenue Family Planning Michelle Wagner Center","2017 First Avenue","San Diego","CA","92101","US","888-743-7526","32.726452","-117.163608","https://www.plannedparenthood.org/health-center/california/san-diego/92101/first-avenue-family-planning-michelle-wagner-center-4037-90110"
"Coachella Center","49-111 California 111 #6A","Coachella","CA","92236","US","888-743-7526","33.6922352","-116.185847","https://www.plannedparenthood.org/health-center/california/coachella/92236/coachella-center-2186-90110"
"Bloomington Health Center","421 S College Ave","Bloomington","IN","47403","US","317-205-8088","39.1622197","-86.5346067","https://www.plannedparenthood.org/health-center/indiana/bloomington/47403/bloomington-health-center-2639-91810"
"Riverside Flaster Family Health Center","3772 Tibbetts","Riverside","CA","92506","US","888-743-7526","33.9466245","-117.3991589","https://www.plannedparenthood.org/health-center/california/riverside/92506/riverside-flaster-family-health-center-2187-90110"
"Rancho Mirage Family Planning Center","71777 San Jacinto Drive, Suite 202","Rancho Mirage","CA","92270","US","888-743-7526","33.743704","-116.412801","https://www.plannedparenthood.org/health-center/california/rancho-mirage/92270/rancho-mirage-family-planning-center-2325-90110"
"La Crosse","1201 Caledonia St.","La Crosse","WI","54603","US","800-657-5177","43.84042599999999","-91.24702990000004","https://www.plannedparenthood.org/health-center/wisconsin/la-crosse/54603/la-crosse-9001-91860"
"Exeter Health Center","108 High Street","Exeter","NH","3833","US","603-772-9315","42.9802391","-70.9353711","https://www.plannedparenthood.org/health-center/new-hampshire/exeter/03833/exeter-health-center-2739-91770"
"Akron Health Center","444 West Exchange Street","Akron","OH","44302","US","330-535-2671","41.083708","-81.535068","https://www.plannedparenthood.org/health-center/ohio/akron/44302/akron-health-center-3344-91230"
"Vista Isabella Health Center","1964 Via Centre","Vista","CA","92081","US","888-743-7526","33.183784","-117.283787","https://www.plannedparenthood.org/health-center/california/vista/92081/vista-isabella-health-center-4186-90110"
"Edmond Clinic","3431 S. Boulevard, Suite 108","Edmond","OK","73013","US","405-348-9904","35.621215","-97.478722","https://www.plannedparenthood.org/health-center/oklahoma/edmond/73013/edmond-clinic-2840-90740"
"Waukesha Health Center","426 W Main Street","Waukesha","WI","53186","US","262-544-0708","43.0109404","-88.2348762","https://www.plannedparenthood.org/health-center/wisconsin/waukesha/53186/waukesha-health-center-2905-91860"
"Moreno Valley Center","12900 Frederick Street, Suite C","Moreno Valley","CA","92553","US","888-743-7526","33.9329463","-117.260768","https://www.plannedparenthood.org/health-center/california/moreno-valley/92553/moreno-valley-center-2188-90110"
"Northland Center","2900 NE 60th Street Suite 100","Gladstone","MO","64119","US","816-453-6000","39.1884884","-94.531212","https://www.plannedparenthood.org/health-center/missouri/gladstone/64119/northland-center-2629-90740"
"Staten Island Center","23 Hyatt Street","Staten Island","NY","10301","US","212-965-7000","40.6421085","-74.07727819999998","https://www.plannedparenthood.org/health-center/new-york/staten-island/10301/staten-island-center-3978-91110"
"The Bronx Center","349 E 149th Street, 2nd Floor (next to Citibank)","Bronx","NY","10451","US","212-965-7000","40.8187386","-73.92716439999998","https://www.plannedparenthood.org/health-center/new-york/bronx/10451/the-bronx-center-2524-91110"
"Merrillville Health Center","8645 Connecticut Street","Merrillville","IN","46410","US","317-205-8088","41.461532","-87.3326775","https://www.plannedparenthood.org/health-center/indiana/merrillville/46410/merrillville-health-center-2923-91810"
"Gary Health Center","1124 Broadway","Gary","IN","46407","US","317-205-8088","41.5913466","-87.33761869999998","https://www.plannedparenthood.org/health-center/indiana/gary/46407/gary-health-center-2920-91810"
"Warren Health Center","375 North Park Ave NW, Suite 1","Warren","OH","44481","US","330-399-5104","41.1794649","-80.8765205","https://www.plannedparenthood.org/health-center/ohio/warren/44481/warren-health-center-4217-91230"
"El Cajon Center","1685 E. Main  Street #301","El Cajon","CA","92021","US","888-743-7526","32.8110796","-116.9187864","https://www.plannedparenthood.org/health-center/california/el-cajon/92021/el-cajon-center-2329-90110"
"Planned Parenthood - Harlingen","712 N 77 Sunshine Strip, Ste. 18","Harlingen","TX","78550","US","956-423-8584","26.1993076","-97.6796404","https://www.plannedparenthood.org/health-center/texas/harlingen/78550/planned-parenthood-harlingen-2561-91710"
"Manitowoc Health Center","1100 South 30th Street","Manitowoc","WI","54220","US","920-684-1332","44.0869043","-87.68719209999999","https://www.plannedparenthood.org/health-center/wisconsin/manitowoc/54220/manitowoc-health-center-2580-91860"
"Lakeland Health Center","2250 E Edgewood Drive","Lakeland","FL","33803","US","863-665-5735","28.0138435","-81.9162957","https://www.plannedparenthood.org/health-center/florida/lakeland/33803/lakeland-health-center-2214-90300"
"Johnstown Health Center","817 Franklin Street","Johnstown","PA","15901","US","814-535-5545","40.3155784","-78.9150628","https://www.plannedparenthood.org/health-center/pennsylvania/johnstown/15901/johnstown-health-center-2246-91470"
"Mira Mesa Center","10717 Camino Ruiz Suite #258","San Diego","CA","92126","US","888-743-7526","32.914737","-117.14288","https://www.plannedparenthood.org/health-center/california/san-diego/92126/mira-mesa-center-2333-90110"
"Euclid Avenue Parker Center","220 Euclid Ave, Suite 30","San Diego","CA","92114","US","888-743-7526","32.7060579","-117.0860179","https://www.plannedparenthood.org/health-center/california/san-diego/92114/euclid-avenue-parker-center-2334-90110"
"Greensburg Health Center","125 Nature Park Road","Greensburg","PA","15601","US","724-552-0352","40.3039879","-79.497795","https://www.plannedparenthood.org/health-center/pennsylvania/greensburg/15601/greensburg-health-center-3962-91470"
"Corona Center","2079 Compton Avenue Suite #104","Corona","CA","92881","US","888-743-7526","33.8485311","-117.5357603","https://www.plannedparenthood.org/health-center/california/corona/92881/corona-center-9999-90110"
"Planned Parenthood West","1844 Broadwater #4","Billings","MT","59102","US","406-656-9980","45.7765582","-108.5636402","https://www.plannedparenthood.org/health-center/montana/billings/59102/planned-parenthood-west-2441-90790"
"Planned Parenthood - San Pedro","920 San Pedro Ave.","San Antonio","TX","78212","US","210-736-2475","29.442383900000003","-98.4988034","https://www.plannedparenthood.org/health-center/texas/san-antonio/78212/planned-parenthood-san-pedro-4248-91710"
"West Bend Health Center","532 Shepherds Drive","West Bend","WI","53090","US","262-338-1303","43.4304365","-88.2339532","https://www.plannedparenthood.org/health-center/wisconsin/west-bend/53090/west-bend-health-center-2906-91860"
"Norristown Health Center","1221 Powell Street","Norristown","PA","19401","US","610-279-6095","40.1234663","-75.3372924","https://www.plannedparenthood.org/health-center/pennsylvania/norristown/19401/norristown-health-center-3440-91460"
"Ottawa Health Center","612 Court Street","Ottawa","IL","61350","US","815-433-4111","41.3459358","-88.84204089999999","https://www.plannedparenthood.org/health-center/illinois/ottawa/61350/ottawa-health-center-2631-90430"
"Wicker Park Health Center","1152 N Milwaukee Ave","Chicago","IL","60642","US","773-252-2240","41.9025164","-87.6656223","https://www.plannedparenthood.org/health-center/illinois/chicago/60642/wicker-park-health-center-2267-90430"
"Fairfield Health Center","1325 Travis Blvd. #C","Fairfield","CA","94533","US","707-429-8855","38.25762759999999","-122.05198420000002","https://www.plannedparenthood.org/health-center/california/fairfield/94533/fairfield-health-center-2700-90200"
"Vallejo Health Center","303 Sacramento Street","Vallejo","CA","94590","US","707-643-4545","38.099692","-122.25878899999998","https://www.plannedparenthood.org/health-center/california/vallejo/94590/vallejo-health-center-2699-90200"
"Paterson Center","680 Broadway","Paterson","NJ","7514","US","973-345-3883","40.91774880000001","-74.14436519999998","https://www.plannedparenthood.org/health-center/new-jersey/paterson/07514/paterson-center-2557-90920"
"Antioch Health Center","1104 Buchanan Road #C10","Antioch","CA","94509","US","925-754-4550","37.9987504","-121.8230007","https://www.plannedparenthood.org/health-center/california/antioch/94509/antioch-health-center-2573-90200"
"Monticello Health Center","14 Prince Street","Monticello","NY","12701","US","845-562-7800","41.655002","-74.689933","https://www.plannedparenthood.org/health-center/new-york/monticello/12701/monticello-health-center-2615-91110"
"North Columbus Health Center","18 East 17th Avenue","Columbus","OH","43201","US","614-222-3604","39.9929821","-83.00122100000002","https://www.plannedparenthood.org/health-center/ohio/columbus/43201/north-columbus-health-center-2717-91230"
"Wilmington Center (DE)","625 N Shipley Street","Wilmington","DE","19801","US","302-655-7293","39.7427651","-75.5507495","https://www.plannedparenthood.org/health-center/delaware/wilmington/19801/wilmington-center-de-3272-90240"
"Washington Health Center","66 East Washington Avenue","Washington","NJ","7882","US","908-454-3000","40.7587515","-74.9781785","https://www.plannedparenthood.org/health-center/new-jersey/washington/07882/washington-health-center-2598-90900"
"Ironbound Health Center","70 Adams St, Suite 13","Newark","NJ","7105","US","973-465-7707","40.7298977","-74.157885","https://www.plannedparenthood.org/health-center/new-jersey/newark/07105/ironbound-health-center-2554-90920"
"San Francisco Health Center","1522 Bush Street","San Francisco","CA","94109","US","415-821-1282","37.7886494","-122.422614","https://www.plannedparenthood.org/health-center/california/san-francisco/94109/san-francisco-health-center-3997-90200"
"Derry Health Center","4 Birch Street","Derry","NH","3038","US","603-434-1354","42.8814457","-71.3234195","https://www.plannedparenthood.org/health-center/new-hampshire/derry/03038/derry-health-center-2742-91770"
"Orland Park Health Center","14470 S. LaGrange Rd.","Orland Park","IL","60462","US","708-349-2227","41.6265709","-87.8545983","https://www.plannedparenthood.org/health-center/illinois/orland-park/60462/orland-park-health-center-3102-90430"
"Diane L. Max Health Center","21-41 45th Road","Queens","NY","11101","US","212-965-7000","40.746553","-73.946146","https://www.plannedparenthood.org/health-center/new-york/queens/11101/diane-l-max-health-center-4184-91110"
"Joan Malin Brooklyn Health Center","44 Court Street, 6th Floor","Brooklyn","NY","11201","US","212-965-7000","40.6927256","-73.9911246","https://www.plannedparenthood.org/health-center/new-york/brooklyn/11201/joan-malin-brooklyn-health-center-2522-91110"
"Wichita Health Center","2226 E Central","Wichita","KS","67214","US","316-263-7575","37.693923","-97.30947500000002","https://www.plannedparenthood.org/health-center/kansas/wichita/67214/wichita-health-center-2876-90741"
"Camden Center","317 Broadway","Camden","NJ","8103","US","856-365-3519","39.9409866","-75.11956","https://www.plannedparenthood.org/health-center/new-jersey/camden/08103/camden-center-3312-90900"
"Northwest Health Center","13169 Northwest Freeway Suite 115","Houston","TX","77040","US","713-514-1107","29.847225500000004","-95.5040188","https://www.plannedparenthood.org/health-center/texas/houston/77040/northwest-health-center-4042-91650"
"Peoria Health Center","2709 N Knoxville Ave","Peoria","IL","61604","US","309-681-0350","40.6979167","-89.5831427","https://www.plannedparenthood.org/health-center/illinois/peoria/61604/peoria-health-center-3281-90430"
"Portage Health Center","132 W. Cook Street","Portage","WI","53901","US","608-742-1551","43.5393784","-89.4606758","https://www.plannedparenthood.org/health-center/wisconsin/portage/53901/portage-health-center-3920-91860"
"St. Peters Health Center","208 Mid Rivers Mall Center Dr.","Saint Peters","MO","63376","US","636-279-3339","38.7874699","-90.6298922","https://www.plannedparenthood.org/health-center/missouri/saint-peters/63376/st-peters-health-center-2709-90770"
"Plano Health Center","600 North Central Expressway","Plano","TX","75074","US","972-424-6311","33.00776","-96.70683239999998","https://www.plannedparenthood.org/health-center/texas/plano/75074/plano-health-center-4193-91620"
"East Orlando Health Center","11500 University Blvd","Orlando","FL","32817","US","407-246-1788","28.5970457","-81.2208404","https://www.plannedparenthood.org/health-center/florida/orlando/32817/east-orlando-health-center-2857-90300"
"Englewood Health Center","6059 S. Ashland Ave.","Chicago","IL","60636","US","773-434-3700","41.7832461","-87.66396430000002","https://www.plannedparenthood.org/health-center/illinois/chicago/60636/englewood-health-center-2264-90430"
"Chico Health Center","3100 Cohasset Rd.","Chico","CA","95973","US","530-342-8367","39.771913","-121.843076","https://www.plannedparenthood.org/health-center/california/chico/95973/chico-health-center-2770-90200"
"Buffalo Health Center","2697 Main Street","Buffalo","NY","14214","US","866-600-6886","42.940527","-78.837224","https://www.plannedparenthood.org/health-center/new-york/buffalo/14214/buffalo-health-center-3334-91040"
"Columbus Health Center","3200 Sycamore Court","Columbus","IN","47203","US","317-205-8088","39.2319006","-85.9197352","https://www.plannedparenthood.org/health-center/indiana/columbus/47203/columbus-health-center-2638-91810"
"Bloomington Health Center","1319 N. Veterans Parkway","Bloomington","IL","61704","US","309-827-4014","40.4772644","-88.9318082","https://www.plannedparenthood.org/health-center/illinois/bloomington/61704/bloomington-health-center-2891-90430"
"Utah Valley Health Center","1086 North 1200 West","Orem","UT","84057","US","801-226-5246","40.3169474","-111.724231","https://www.plannedparenthood.org/health-center/utah/orem/84057/utah-valley-health-center-2257-91730"
"Hilltop-Richmond Health Center","2970 Hilltop Mall Road #307","Richmond","CA","94806","US","510-222-5290","37.97759380000001","-122.329231","https://www.plannedparenthood.org/health-center/california/richmond/94806/hilltop-richmond-health-center-2791-90200"
"East Orange  Health Center","560 Dr. Martin Luther King Blvd., Ste. 100","East Orange","NJ","7018","US","973-674-4343","40.7670586","-74.2185215","https://www.plannedparenthood.org/health-center/new-jersey/east-orange/07018/east-orange-health-center-2551-90920"
"Southwest","1400 S Wadsworth Blvd.","Lakewood","CO","80232","US","303-988-3821","39.6911871","-105.08070039999998","https://www.plannedparenthood.org/health-center/colorado/lakewood/80232/southwest-2483-90210"
"Friday Harbor Health Center (San Juan Island)","470 Reed Street, Unit 2A","Friday Harbor","WA","98250","US","360-378-6010","48.5347519","-123.0201817","https://www.plannedparenthood.org/health-center/washington/friday-harbor/98250/friday-harbor-health-center-san-juan-island-2844-91780"
"Kent Health Center","138 E Main Street","Kent","OH","44240","US","330-678-8011","41.1535746","-81.35735489999999","https://www.plannedparenthood.org/health-center/ohio/kent/44240/kent-health-center-2849-91230"
"Upland Health Center","918 W. Foothill Blvd., #A","Upland","CA","91786","US","909-890-5511","34.10629190000001","-117.6636065","https://www.plannedparenthood.org/health-center/california/upland/91786/upland-health-center-2283-90160"
"South Austin Health Center","201 E. Ben White Blvd. - Bldg. B","Austin","TX","78704","US","512-351-4660","30.2212594","-97.7630823","https://www.plannedparenthood.org/health-center/texas/austin/78704/south-austin-health-center-2397-91620"
"Virginia Health Center","505 12th Avenue West","Virginia","MN","55792","US","218-741-8192","47.51784189999999","-92.5519057","https://www.plannedparenthood.org/health-center/minnesota/virginia/55792/virginia-health-center-2928-90720"
"Loop Health Center","18 S. Michigan Avenue","Chicago","IL","60603","US","312-592-6700","41.8814566","-87.62489849999999","https://www.plannedparenthood.org/health-center/illinois/chicago/60603/loop-health-center-3286-90430"
"Mt. Auburn Health Center","2314 Auburn Avenue","Cincinnati","OH","45219","US","513-287-6484","39.12364900000001","-84.507931","https://www.plannedparenthood.org/health-center/ohio/cincinnati/45219/mt-auburn-health-center-3346-91260"
"San Rafael Health Center","2 H Street","San Rafael","CA","94901","US","415-459-4907","37.9743624","-122.5383343","https://www.plannedparenthood.org/health-center/california/san-rafael/94901/san-rafael-health-center-4114-90200"
"Massapequa Center","35 Carmans Road","Massapequa","NY","11758","US","516-750-2500","40.6835714","-73.4305176","https://www.plannedparenthood.org/health-center/new-york/massapequa/11758/massapequa-center-2788-91110"
"Rogers Park Health Center","5725 North Broadway","Chicago","IL","60660","US","773-942-7193","41.98628920000001","-87.65941959999998","https://www.plannedparenthood.org/health-center/illinois/chicago/60660/rogers-park-health-center-2266-90430"
"Syracuse Health Center","1120 E Genesee Street","Syracuse","NY","13210","US","866-600-6886","43.0469124","-76.1325676","https://www.plannedparenthood.org/health-center/new-york/syracuse/13210/syracuse-health-center-2471-91040"
"Soldotna Health Center","130 East Redoubt Avenue","Soldotna","AK","99669","US","800-769-0045","60.488632","-151.067863","https://www.plannedparenthood.org/health-center/alaska/soldotna/99669/soldotna-health-center-2604-91810"
"Bellmawr","35 East Browning Road","Bellmawr","NJ","8031","US","856-861-6629","39.8671398","-75.07760769999999","https://www.plannedparenthood.org/health-center/new-jersey/bellmawr/08031/bellmawr-2612-90900"
"Evansville Health Center","125 N Weinbach #120","Evansville","IN","47711","US","317-205-8088","37.9792963","-87.5286824","https://www.plannedparenthood.org/health-center/indiana/evansville/47711/evansville-health-center-2637-91810"
"Eau Claire Health Center","967 W. Clairemont Avenue","Eau Claire","WI","54701","US","715-833-2279","44.800365","-91.5254871","https://www.plannedparenthood.org/health-center/wisconsin/eau-claire/54701/eau-claire-health-center-2694-91860"
"Wisconsin Rapids Health Center","1355 South 8th Street","Wisconsin Rapids","WI","54494","US","715-423-9610","44.38021849999999","-89.8170703","https://www.plannedparenthood.org/health-center/wisconsin/wisconsin-rapids/54494/wisconsin-rapids-health-center-2697-91860"
"Mulberry Health Center (formerly known as Chubb)","240 Mulberry Street","Newark","NJ","7102","US","973-622-3900","40.7231264","-74.1416127","https://www.plannedparenthood.org/health-center/new-jersey/newark/07102/mulberry-health-center-formerly-known-as-chubb-4225-90920"
"Desert Sky Health Center","2020 N. 75th Avenue, Suite 11","Phoenix","AZ","85035","US","602-277-7526","33.4697547","-112.22230960000002","https://www.plannedparenthood.org/health-center/arizona/phoenix/85035/desert-sky-health-center-2750-90030"
"Addison Health Center","5290 Beltline Road #134","Addison","TX","75254","US","972-991-1424","32.9532639","-96.816666","https://www.plannedparenthood.org/health-center/texas/addison/75254/addison-health-center-2157-91620"
"Mesquite Health Center","1220 North Town East Blvd. #240","Mesquite","TX","75150","US","972-613-0915","32.8098577","-96.6128434","https://www.plannedparenthood.org/health-center/texas/mesquite/75150/mesquite-health-center-2159-91620"
"Bedford Health Center","2824 Central Drive","Bedford","TX","76021","US","817-545-0077","32.851344600000004","-97.12973","https://www.plannedparenthood.org/health-center/texas/bedford/76021/bedford-health-center-2242-91620"
"Denver Southeast (Glendale)","6310 E Exposition Ave.","Denver","CO","80224","US","303-320-1630","39.7035713","-104.9148008","https://www.plannedparenthood.org/health-center/colorado/denver/80224/denver-southeast-glendale-2491-90210"
"North Dallas Shelburne Health Center","9100 N. Central Expwy, #169","Dallas","TX","75231","US","214-368-1485","32.8730585","-96.76781029999998","https://www.plannedparenthood.org/health-center/texas/dallas/75231/north-dallas-shelburne-health-center-2521-91620"
"St. Cloud Health Center","451 E. St. Germain St, Suite 100","Saint Cloud","MN","56304","US","320-252-9504","45.5661222","-94.1503675","https://www.plannedparenthood.org/health-center/minnesota/saint-cloud/56304/st-cloud-health-center-2609-90720"
"Ithaca Health Center","620 West Seneca Street","Ithaca","NY","14850","US","607-273-1513","42.4400916","-76.5096744","https://www.plannedparenthood.org/health-center/new-york/ithaca/14850/ithaca-health-center-3333-91110"
"The Elizabeth Blackwell Health Center (tm) at Locust Street.","1144 Locust Street","Philadelphia","PA","19107","US","215-351-5560","39.9476224","-75.1606336","https://www.plannedparenthood.org/health-center/pennsylvania/philadelphia/19107/the-elizabeth-blackwell-health-center-tm-at-locust-street-3361-91460"
"Southwest Fort Worth Health Center","6464 John Ryan Drive - Suite B","Fort Worth","TX","76132","US","817-276-8063","32.6551962","-97.42075590000002","https://www.plannedparenthood.org/health-center/texas/fort-worth/76132/southwest-fort-worth-health-center-4101-91620"
"Planned Parenthood - Southeast","7022 S. New Braunfels Ave","San Antonio","TX","78223","US","210-333-5454","29.3575706","-98.4480275","https://www.plannedparenthood.org/health-center/texas/san-antonio/78223/planned-parenthood-southeast-2966-91710"
"Pittsburgh Family Planning Health Center","933 Liberty Avenue","Pittsburgh","PA","15222","US","412-434-8971","40.4434897","-79.9968471","https://www.plannedparenthood.org/health-center/pennsylvania/pittsburgh/15222/pittsburgh-family-planning-health-center-3358-91470"
"Susan Knapp Health Center","2304 University Avenue","Des Moines","IA","50311","US","877-811-7526","41.6002113","-93.6485275","https://www.plannedparenthood.org/health-center/iowa/des-moines/50311/susan-knapp-health-center-3385-90380"
"Medford Health Center","125 South Central","Medford","OR","97501","US","541-344-9411","42.32542219999999","-122.870782","https://www.plannedparenthood.org/health-center/oregon/medford/97501/medford-health-center-2367-91380"
"Brooklyn Park Health Center","7532 Brooklyn Blvd.","Brooklyn Park","MN","55443","US","763-560-3050","45.09207929999999","-93.3516079","https://www.plannedparenthood.org/health-center/minnesota/brooklyn-park/55443/brooklyn-park-health-center-2671-90720"
"Newport Health Center","79 Coventry Street","Newport","VT","5855","US","802-334-5822","44.93527199999999","-72.206947","https://www.plannedparenthood.org/health-center/vermont/newport/05855/newport-health-center-2657-91770"
"Durham Health Center","105 Newsom Street, Ste. 101","Durham","NC","27704","US","919-286-2872","36.0407824","-78.90032","https://www.plannedparenthood.org/health-center/north-carolina/durham/27704/durham-health-center-4171-90860"
"Detroit Corktown Satellite Health Center","1726 Howard Street","Detroit","MI","48216","US","734-619-7580","42.3250246","-83.0665487","https://www.plannedparenthood.org/health-center/michigan/detroit/48216/detroit-corktown-satellite-health-center-4515-90630"
"Tyler Health Center","601 Turtle Creek Drive","Tyler","TX","75701","US","903-581-8277","32.340557","-95.2946662","https://www.plannedparenthood.org/health-center/texas/tyler/75701/tyler-health-center-2213-91620"
"Arlington Health Center","3701 South Cooper Street #235","Arlington","TX","76015","US","817-472-8196","32.685579","-97.1304267","https://www.plannedparenthood.org/health-center/texas/arlington/76015/arlington-health-center-2244-91620"
"Eastside-Bellevue Health Center","14730 NE 8th St.","Bellevue","WA","98007","US","800-769-0045","47.6175496","-122.14427980000002","https://www.plannedparenthood.org/health-center/washington/bellevue/98007/eastside-bellevue-health-center-4151-91810"
"Salida","233 E. 2nd St","Salida","CO","81201","US","719-539-7291","38.53427549999999","-105.9909387","https://www.plannedparenthood.org/health-center/colorado/salida/81201/salida-2277-90210"
"Hornell Health Center","111 Seneca Street","Hornell","NY","14843","US","607-324-1124","42.3321619","-77.660698","https://www.plannedparenthood.org/health-center/new-york/hornell/14843/hornell-health-center-2347-91110"
"Springfield Health Center","626 E Battlefield St.","Springfield","MO","65807","US","417-883-3800","37.159477","-93.28755800000002","https://www.plannedparenthood.org/health-center/missouri/springfield/65807/springfield-health-center-2428-90770"
"Mar Monte Community Clinic","2470 Alvin Ave","San Jose","CA","95121","US","408-274-7100","37.31971440000001","-121.8267894","https://www.plannedparenthood.org/health-center/california/san-jose/95121/mar-monte-community-clinic-2437-90130"
"Planned Parenthood Missoula","219 East Main Street","Missoula","MT","59802","US","406-728-5490","46.870217100000005","-113.992229","https://www.plannedparenthood.org/health-center/montana/missoula/59802/planned-parenthood-missoula-2440-90790"
"Hyde Park Health Center","213 Main St.","Hyde Park","VT","5655","US","802-888-3077","44.5930572","-72.6160612","https://www.plannedparenthood.org/health-center/vermont/hyde-park/05655/hyde-park-health-center-2647-91770"
"St. Albans Health Center","80 Fairfield Street","Saint Albans","VT","5478","US","802-527-1727","44.808401","-73.07826","https://www.plannedparenthood.org/health-center/vermont/saint-albans/05478/st-albans-health-center-2653-91770"
"Middlebury Health Center","1330 Exchange Street","Middlebury","VT","5753","US","802-388-2765","44.0354429","-73.16518510000003","https://www.plannedparenthood.org/health-center/vermont/middlebury/05753/middlebury-health-center-2656-91770"
"Peoria Health Center","1007 S. Peoria Ave.","Tulsa","OK","74120","US","918-858-4661","36.14880580000001","-95.9752854","https://www.plannedparenthood.org/health-center/oklahoma/tulsa/74120/peoria-health-center-2416-90740"
"West County Health Center","#1 Stonegate Center","Manchester","MO","63088","US","636-431-0030","38.5663247","-90.4954463","https://www.plannedparenthood.org/health-center/missouri/manchester/63088/west-county-health-center-2708-90770"
"Milwaukee-Northwest Health Center","5380 W Fond du Lac Avenue","Milwaukee","WI","53216","US","414-536-6690","43.0937507","-87.9804653","https://www.plannedparenthood.org/health-center/wisconsin/milwaukee/53216/milwaukee-northwest-health-center-2823-91860"
"Midtown Health Center","3750 N Meridian St., #100","Indianapolis","IN","46208","US","317-205-8088","39.823937","-86.15725499999999","https://www.plannedparenthood.org/health-center/indiana/indianapolis/46208/midtown-health-center-2867-91810"
"South Grand Health Center","3401 South Grand","Saint Louis","MO","63118","US","314-865-1850","38.5958748","-90.2436096","https://www.plannedparenthood.org/health-center/missouri/saint-louis/63118/south-grand-health-center-2887-90770"
"Costa Mesa Health Center","1520 Nutmeg Place Suite 101","Costa Mesa","CA","92626","US","714-922-4100","33.6826003","-117.92036910000002","https://www.plannedparenthood.org/health-center/california/costa-mesa/92626/costa-mesa-health-center-2286-90160"
"Moses Lake Health Center","920 W Ivy","Moses Lake","WA","98837","US","866-904-7721","47.12393609999999","-119.2896121","https://www.plannedparenthood.org/health-center/washington/moses-lake/98837/moses-lake-health-center-4202-91850"
"Willmar Health Center","2320 E. Highway 12, Suite 6","Willmar","MN","56201","US","320-235-9150","45.1216458","-95.0747567","https://www.plannedparenthood.org/health-center/minnesota/willmar/56201/willmar-health-center-2859-90720"
"Oneida Center","603 Seneca Street, Suite 5","Oneida","NY","13421","US","315-363-3950","43.0775075","-75.6516094","https://www.plannedparenthood.org/health-center/new-york/oneida/13421/oneida-center-2883-91110"
"Racine Health Center","834 S Main Street","Racine","WI","53403","US","262-634-2060","42.723398","-87.782976","https://www.plannedparenthood.org/health-center/wisconsin/racine/53403/racine-health-center-2904-91860"
"Apple Valley Health Center","15322 Galaxie Avenue, Suite 105","Apple Valley","MN","55124","US","952-890-0940","44.7268274","-93.2070762","https://www.plannedparenthood.org/health-center/minnesota/apple-valley/55124/apple-valley-health-center-3091-90720"
"Cedar Hill Health Center","140 W FM 1382, Ste 160","Cedar Hill","TX","75104","US","972-709-0081","32.5994022","-96.9440761","https://www.plannedparenthood.org/health-center/texas/cedar-hill/75104/cedar-hill-health-center-2160-91620"
"Denton Health Center","2436 S Interstate 35 #340","Denton","TX","76205","US","940-891-0737","33.1789661","-97.0977267","https://www.plannedparenthood.org/health-center/texas/denton/76205/denton-health-center-2190-91620"
"Joplin Health Center","710 Illinois Ave","Joplin","MO","64801","US","417-781-6500","37.0832836","-94.5028379","https://www.plannedparenthood.org/health-center/missouri/joplin/64801/joplin-health-center-2429-90770"
"Northville Health Center","9919 North Freeway Service Road, Suite 107","Houston","TX","77037","US","713-514-1106","29.8927547","-95.3991907","https://www.plannedparenthood.org/health-center/texas/houston/77037/northville-health-center-2494-91650"
"Castor Ave. Health Center","8210 Castor Ave","Philadelphia","PA","19152","US","215-745-5966","40.0649399","-75.053555","https://www.plannedparenthood.org/health-center/pennsylvania/philadelphia/19152/castor-ave-health-center-2512-91460"
"Springfield Health Center","1061 North Bechtle Avenue","Springfield","OH","45504","US","937-325-7349","39.9388142","-83.8354664","https://www.plannedparenthood.org/health-center/ohio/springfield/45504/springfield-health-center-2565-91260"
"Brattleboro Health Center","6 High St.","Brattleboro","VT","5301","US","802-257-0534","42.8531225","-72.5588141","https://www.plannedparenthood.org/health-center/vermont/brattleboro/05301/brattleboro-health-center-2658-91770"
"Salt Lake Health Center","654 South 900 East","Salt Lake City","UT","84102","US","801-322-5571","40.7549418","-111.8658411","https://www.plannedparenthood.org/health-center/utah/salt-lake-city/84102/salt-lake-health-center-3567-91730"
"St. Paul Health Center - Vandalia","671 Vandalia St.","Saint Paul","MN","55114","US","651-698-2406","44.960309900000006","-93.1902279","https://www.plannedparenthood.org/health-center/minnesota/saint-paul/55114/st-paul-health-center-vandalia-4055-90720"
"Michigan City Health Center","2424 Franklin Street","Michigan City","IN","46360","US","317-205-8088","41.701966","-86.893835","https://www.plannedparenthood.org/health-center/indiana/michigan-city/46360/michigan-city-health-center-2921-91810"
"Duluth Health Center","1001 East Central Entrance, Suite 200","Duluth","MN","55811","US","218-722-0833","46.7995208","-92.1136513","https://www.plannedparenthood.org/health-center/minnesota/duluth/55811/duluth-health-center-2929-90720"
"Cleveland Health Center","7997 Euclid Ave","Cleveland","OH","44103","US","216-851-1880","41.504813","-81.632467","https://www.plannedparenthood.org/health-center/ohio/cleveland/44103/cleveland-health-center-3966-91230"
"Green Bay Health Center","2605 S. Oneida Street","Green Bay","WI","54304","US","920-432-0031","44.4798951","-88.0706356","https://www.plannedparenthood.org/health-center/wisconsin/green-bay/54304/green-bay-health-center-4024-91860"
"Central Phoenix Health Center","4751  N 15th Street","Phoenix","AZ","85014","US","602-277-7526","33.5071474","-112.0494006","https://www.plannedparenthood.org/health-center/arizona/phoenix/85014/central-phoenix-health-center-4200-90030"
"Southwest Health Center","5800 Bellaire Blvd. Building 1B, Suite 120","Houston","TX","77081","US","713-541-5372","29.706202399999995","-95.4835013","https://www.plannedparenthood.org/health-center/texas/houston/77081/southwest-health-center-2293-91650"
"Hamilton Health Center","11 Ludlow Street","Hamilton","OH","45011","US","513-856-8332","39.3984495","-84.5655533","https://www.plannedparenthood.org/health-center/ohio/hamilton/45011/hamilton-health-center-2389-91260"
"Downtown Austin Health Center","1823 E 7th Street","Austin","TX","78702","US","512-477-5846","30.2624144","-97.7224266","https://www.plannedparenthood.org/health-center/texas/austin/78702/downtown-austin-health-center-2396-91620"
"Roseland Health Center","11250 S Halsted St.","Chicago","IL","60628","US","877-200-7745","41.6888809","-87.64266089999998","https://www.plannedparenthood.org/health-center/illinois/chicago/60628/roseland-health-center-2263-90430"
"Quakertown Health Center","401 West Broad Street","Quakertown","PA","18951","US","215-536-2684","40.4417086","-75.3392954","https://www.plannedparenthood.org/health-center/pennsylvania/quakertown/18951/quakertown-health-center-2515-91410"
"Manteca Health Center","965 E. Yosemite Avenue Suite #2","Manteca","CA","95336","US","209-239-2528","37.797723","-121.20348230000002","https://www.plannedparenthood.org/health-center/california/manteca/95336/manteca-health-center-2530-90130"
"South Jordan Health Center","1091 West South Jordan Parkway (106th South), Suite 100","South Jordan","UT","84095","US","801-254-2052","40.5603164","-111.9213521","https://www.plannedparenthood.org/health-center/utah/south-jordan/84095/south-jordan-health-center-3442-91730"
"Spring Health Center","4747 Louetta Road","Spring","TX","77388","US","713-514-1102","30.0416604","-95.48624049999998","https://www.plannedparenthood.org/health-center/texas/spring/77388/spring-health-center-4097-91650"
"Richfield Health Center","6527 Lyndale Avenue South","Richfield","MN","55423","US","612-874-1420","44.8839147","-93.2846571","https://www.plannedparenthood.org/health-center/minnesota/richfield/55423/richfield-health-center-4138-90720"
"Gainesville Health Center","914 NW 13th Street","Gainesville","FL","32601","US","352-377-0881","29.66071","-82.339605","https://www.plannedparenthood.org/health-center/florida/gainesville/32601/gainesville-health-center-2155-90320"
"Southeast Fort Worth Health Center","3863 Miller Ave.","Fort Worth","TX","76119","US","817-536-4942","32.706065","-97.262514","https://www.plannedparenthood.org/health-center/texas/fort-worth/76119/southeast-fort-worth-health-center-2243-91620"
"Tampa Health Center","8068 North 56th Street","Tampa","FL","33617","US","813-980-3555","28.021792","-82.3940066","https://www.plannedparenthood.org/health-center/florida/tampa/33617/tampa-health-center-2247-90300"
"Victorville Health Center","15403 Park Ave. E.","Victorville","CA","92392","US","909-890-5511","34.50666140000001","-117.3237722","https://www.plannedparenthood.org/health-center/california/victorville/92392/victorville-health-center-4082-90160"
"Aurora Health Center","3051 E. New York St.","Aurora","IL","60504","US","630-585-0500","41.7581522","-88.2392652","https://www.plannedparenthood.org/health-center/illinois/aurora/60504/aurora-health-center-3483-90430"
"Austin Health Center","5937 W Chicago Ave.","Chicago","IL","60651","US","773-287-2020","41.8945439","-87.77381540000002","https://www.plannedparenthood.org/health-center/illinois/chicago/60651/austin-health-center-2265-90430"
"Sunnyside Health Center","2934 Covey Ln","Sunnyside","WA","98944","US","866-904-7721","46.3090311","-119.9814292","https://www.plannedparenthood.org/health-center/washington/sunnyside/98944/sunnyside-health-center-2403-91850"
"Logan Health Center","550 N Main #17","Logan","UT","84321","US","435-753-0724","41.74201539999999","-111.83417649999998","https://www.plannedparenthood.org/health-center/utah/logan/84321/logan-health-center-2420-91730"
"University District Health Center","5020 Roosevelt Way NE","Seattle","WA","98105","US","800-769-0045","47.6655991","-122.3171088","https://www.plannedparenthood.org/health-center/washington/seattle/98105/university-district-health-center-2532-91810"
"Franklinton Health Center","1511 West Broad Street","Columbus","OH","43222","US","614-222-3525","39.9567051","-83.0400706","https://www.plannedparenthood.org/health-center/ohio/columbus/43222/franklinton-health-center-2718-91230"
"Owings Mills Health Center","1866 Reistertown Road, Suite D","Pikesville","MD","21208","US","410-576-1414","39.3901814","-76.7415615","https://www.plannedparenthood.org/health-center/maryland/pikesville/21208/owings-mills-health-center-2833-90620"
"Hammond Health Center","7131 Indianapolis Blvd.","Hammond","IN","46324","US","317-205-8088","41.5836491","-87.48065139999999","https://www.plannedparenthood.org/health-center/indiana/hammond/46324/hammond-health-center-2922-91810"
"Athens Health Center","1005 East State Street","Athens","OH","45701","US","740-593-6979","39.3347954","-82.05463859999999","https://www.plannedparenthood.org/health-center/ohio/athens/45701/athens-health-center-2974-91230"
"West Chester Health Center","8 S Wayne Street","West Chester","PA","19382","US","610-692-1770","39.9566465","-75.6103587","https://www.plannedparenthood.org/health-center/pennsylvania/west-chester/19382/west-chester-health-center-3356-91460"
"Milwaukee - Mitchell Street Health Center","1710 South 7th Street Suite 300","Milwaukee","WI","53204","US","414-645-8383","43.0119916","-87.9196442","https://www.plannedparenthood.org/health-center/wisconsin/milwaukee/53204/milwaukee-mitchell-street-health-center-3490-91860"
"Visalia Health Center","211 N. Stevenson Street","Visalia","CA","93291","US","877-855-7526","36.331717","-119.300189","https://www.plannedparenthood.org/health-center/california/visalia/93291/visalia-health-center-4021-90130"
"Olympia Health Center","402 Legion Way, Suite 201","Olympia","WA","98501","US","800-769-0045","47.0437201","-122.8975107","https://www.plannedparenthood.org/health-center/washington/olympia/98501/olympia-health-center-2460-91810"
"Eugene-Springfield Health Center","3579 Franklin Blvd","Eugene","OR","97403","US","541-344-9411","44.0449723","-123.040873","https://www.plannedparenthood.org/health-center/oregon/eugene/97403/eugene-springfield-health-center-4075-91380"
"Niagara Falls Office","750 Portage Road","Niagara Falls","NY","14301","US","866-600-6886","43.0957608","-79.05020659999998","https://www.plannedparenthood.org/health-center/new-york/niagara-falls/14301/niagara-falls-office-2976-91040"
"Santa Fe","730 St. Michael's Drive, Suite 4B","Santa Fe","NM","87505","US","505-982-3684","35.659298","-105.9600624","https://www.plannedparenthood.org/health-center/new-mexico/santa-fe/87505/santa-fe-2801-90210"
"Cobb Center","220 Cobb Parkway North, Suite 500","Marietta","GA","30062","US","404-688-9300","33.9558023","-84.5224992","https://www.plannedparenthood.org/health-center/georgia/marietta/30062/cobb-center-2270-90330"
"Topsham Health Center","4 Bowdoin Mill Island","Topsham","ME","4086","US","207-725-8264","43.92241589999999","-69.9644604","https://www.plannedparenthood.org/health-center/maine/topsham/04086/topsham-health-center-2941-91770"
"Shrewsbury Center","69 East Newman Springs Road","Shrewsbury","NJ","7702","US","732-842-9300","40.3377597","-74.0665083","https://www.plannedparenthood.org/health-center/new-jersey/shrewsbury/07702/shrewsbury-center-3510-90900"
"Flemington Health Center","349 Rt 31 South","Flemington","NJ","8822","US","908-782-7727","40.5437849","-74.858136","https://www.plannedparenthood.org/health-center/new-jersey/flemington/08822/flemington-health-center-2596-90900"
"Elmira Health Center","755 E. Church Street","Elmira","NY","14901","US","607-734-3313","42.0941464","-76.79487719999999","https://www.plannedparenthood.org/health-center/new-york/elmira/14901/elmira-health-center-2349-91110"
"Rocky River Health Center","20800 Center Ridge Road #101","Rocky River","OH","44116","US","440-331-8744","41.4627799","-81.8508748","https://www.plannedparenthood.org/health-center/ohio/rocky-river/44116/rocky-river-health-center-2418-91230"
"Pekin Health Center","328 South Fourth Street","Pekin","IL","61554","US","309-347-1274","40.5659231","-89.6477662","https://www.plannedparenthood.org/health-center/illinois/pekin/61554/pekin-health-center-2480-90430"
"Appleton Central Health Center","508 W Wisconsin Ave, Suite A","Appleton","WI","54911","US","920-731-6304","44.273183","-88.4126899","https://www.plannedparenthood.org/health-center/wisconsin/appleton/54911/appleton-central-health-center-2578-91860"
"Southern Arizona Regional Health Center","2255 N. Wyatt Dr.","Tucson","AZ","85712","US","520-408-7526","32.24817999999999","-110.881799","https://www.plannedparenthood.org/health-center/arizona/tucson/85712/southern-arizona-regional-health-center-3261-90030"
"Anaheim Health Center","303 W. Lincoln Ave., #105","Anaheim","CA","92805","US","714-922-4100","33.8352657","-117.9180239","https://www.plannedparenthood.org/health-center/california/anaheim/92805/anaheim-health-center-2284-90160"
"Mission Viejo Health Center","26137 La Paz Rd., #200","Mission Viejo","CA","92691","US","714-922-4100","33.6010617","-117.6738644","https://www.plannedparenthood.org/health-center/california/mission-viejo/92691/mission-viejo-health-center-2288-90160"
"Santa Ana Health Center","1421 E. 17th St.","Santa Ana","CA","92705","US","714-922-4100","33.7602745","-117.8477951","https://www.plannedparenthood.org/health-center/california/santa-ana/92705/santa-ana-health-center-2287-90160"
"Westminster Health Center","14372 Beach Blvd.","Westminster","CA","92683","US","714-922-4100","33.7527758","-117.9889662","https://www.plannedparenthood.org/health-center/california/westminster/92683/westminster-health-center-2285-90160"
"Independence Health Center","815 N Noland Road","Independence","MO","64050","US","816-252-3800","39.09941659999999","-94.4124934","https://www.plannedparenthood.org/health-center/missouri/independence/64050/independence-health-center-2630-90740"
"Clifton Park Center","1673 Route 9","Clifton Park","NY","12065","US","518-383-1783","42.8602439","-73.7638401","https://www.plannedparenthood.org/health-center/new-york/clifton-park/12065/clifton-park-center-2781-91110"
"Bridgeville Health Center","533 Washington Pike Suite 203","Bridgeville","PA","15017","US","412-257-9880","40.3575424","-80.1125514","https://www.plannedparenthood.org/health-center/pennsylvania/bridgeville/15017/bridgeville-health-center-2828-91470"
"Planned Parenthood - Marbach Rd.","8725 Marbach Rd., Ste. 215","San Antonio","TX","78227","US","210-674-2222","29.418872","-98.656942","https://www.plannedparenthood.org/health-center/texas/san-antonio/78227/planned-parenthood-marbach-rd-2965-91710"
"Bensalem Medical Center","Centre Plaza Shopping Center","Bensalem","PA","19020","US","215-638-0629","40.1105","-74.9351","https://www.plannedparenthood.org/health-center/pennsylvania/bensalem/19020/bensalem-medical-center-2513-91410"
"Bluegrass Health Center","268 Southland Drive","Lexington","KY","40503","US","317-205-8088","38.014208","-84.522579","https://www.plannedparenthood.org/health-center/kentucky/lexington/40503/bluegrass-health-center-3291-91810"
"Central West End Health Center","4251 Forest Park Avenue","Saint Louis","MO","63108","US","314-531-7526","38.6370474","-90.25122720000002","https://www.plannedparenthood.org/health-center/missouri/saint-louis/63108/central-west-end-health-center-3301-90770"
"Sanford Health Center","886 Main Street, Ste. 200B","Sanford","ME","4073","US","207-324-9385","43.4405913","-70.7762708","https://www.plannedparenthood.org/health-center/maine/sanford/04073/sanford-health-center-2942-91770"
"Stafford Health Center - Family Planning","12614 Southwest Freeway, Suite A","Stafford","TX","77477","US","713-514-1100","29.6388285","-95.5831088","https://www.plannedparenthood.org/health-center/texas/stafford/77477/stafford-health-center-family-planning-4095-91650"
"Paris Health Center","1735 17th Street NE","Paris","TX","75460","US","903-784-1301","33.6771919","-95.5391009","https://www.plannedparenthood.org/health-center/texas/paris/75460/paris-health-center-2211-91620"
"Mansfield Health Center","384 Park Avenue W","Mansfield","OH","44906","US","419-525-3075","40.7591726","-82.52991690000002","https://www.plannedparenthood.org/health-center/ohio/mansfield/44906/mansfield-health-center-2424-91230"
"Sioux City Center","4409 Stone Avenue","Sioux City","IA","51106","US","877.811.7526","42.4795982","-96.3501484","https://www.plannedparenthood.org/health-center/iowa/sioux-city/51106/sioux-city-center-2297-90380"
"Denver Central","921 E 14th Ave","Denver","CO","80218","US","303-832-5069","39.7385875","-104.9757639","https://www.plannedparenthood.org/health-center/colorado/denver/80218/denver-central-2484-90210"
"Ventura Center","5400 Ralston Street","Ventura","CA","93003","US","888-898-3806","34.25948429999999","-119.217907","https://www.plannedparenthood.org/health-center/california/ventura/93003/ventura-center-2251-90170"
"Mankato Health Center","201 North Victory Drive, Suite 211, Belle Mar Mall","Mankato","MN","56001","US","507-387-5581","44.16479259999999","-93.9706733","https://www.plannedparenthood.org/health-center/minnesota/mankato/56001/mankato-health-center-2797-90720"
"Woodbury Health Center","1795 Radio Drive,  Suite D","Woodbury","MN","55125","US","651-696-5550","44.92404750000001","-92.9323266","https://www.plannedparenthood.org/health-center/minnesota/woodbury/55125/woodbury-health-center-3096-90720"
"Grants Pass Health Center","160 NW Franklin Blvd.","Grants Pass","OR","97526","US","541-344-9411","42.457022","-123.324549","https://www.plannedparenthood.org/health-center/oregon/grants-pass/97526/grants-pass-health-center-2371-91380"
"Planned Parenthood Great Falls","211 9th Street South","Great Falls","MT","59405","US","406-454-3431","47.502733","-111.29175","https://www.plannedparenthood.org/health-center/montana/great-falls/59405/planned-parenthood-great-falls-2442-90790"
"Minneapolis Health Center","1200 Lagoon Avenue","Minneapolis","MN","55408","US","612-823-6300","44.94958489999999","-93.2948363","https://www.plannedparenthood.org/health-center/minnesota/minneapolis/55408/minneapolis-health-center-2719-90720"
"Moon Township Health Center","935 Beaver Grade Road Suite 12","Moon Township","PA","15108","US","412-264-7205","40.511335","-80.21299409999999","https://www.plannedparenthood.org/health-center/pennsylvania/moon-township/15108/moon-township-health-center-2827-91470"
"Bemidji Health Center","2504 Hannah Ave NW","Bemidji","MN","56601","US","218-751-8683","47.4931349","-94.9061479","https://www.plannedparenthood.org/health-center/minnesota/bemidji/56601/bemidji-health-center-2927-90720"
"Charleston Health Center","1312 Ashley River Road","Charleston","SC","29407","US","843-628-4380","32.7980042","-79.99920420000001","https://www.plannedparenthood.org/health-center/south-carolina/charleston/29407/charleston-health-center-4288-90860"
"Planned Parenthood Basics, Lakewood","5519 E. Del Amo Blvd","Lakewood","CA","90713","US","800-576-5544","33.8475028","-118.12430460000002","https://www.plannedparenthood.org/health-center/california/lakewood/90713/planned-parenthood-basics-lakewood-3467-90070"
"Kendall Health Center","8900 SW 117th Avenue Unit 207-B","Miami","FL","33186","US","786-263-0001","25.6851992","-80.38513260000002","https://www.plannedparenthood.org/health-center/florida/miami/33186/kendall-health-center-2258-90320"
"Eden Prairie Health Center","582 Prairie Center Dr., Suite 215","Eden Prairie","MN","55344","US","952-653-4499","44.8528286","-93.42905779999998","https://www.plannedparenthood.org/health-center/minnesota/eden-prairie/55344/eden-prairie-health-center-3376-90720"
"Savannah Center","720 East 71st St","Savannah","GA","31405","US","912-351-0116","32.0371137","-81.1747498","https://www.plannedparenthood.org/health-center/georgia/savannah/31405/savannah-center-2207-90330"
"Bridgeport Center","4697 Main Street","Bridgeport","CT","6606","US","203-366-0664","41.2233179","-73.21886239999998","https://www.plannedparenthood.org/health-center/connecticut/bridgeport/06606/bridgeport-center-4275-90220"
"Ukiah Health Center","242-A Hospital Drive","Ukiah","CA","95482","US","707-462-4303","39.135471","-123.2087808","https://www.plannedparenthood.org/health-center/california/ukiah/95482/ukiah-health-center-4034-90200"
"Stafford Center for Choice - Abortion","12614 Southwest Freeway, Suite A","Stafford","TX","77477","US","713-514-1101","29.6388285","-95.5831088","https://www.plannedparenthood.org/health-center/texas/stafford/77477/stafford-center-for-choice-abortion-2294-91651"
"Milwaukee- Water Street Health Center","435 S. Water Street","Milwaukee","WI","53204","US","414-276-8777","43.0262839","-87.90594290000001","https://www.plannedparenthood.org/health-center/wisconsin/milwaukee/53204/milwaukee-water-street-health-center-4270-91860"
"Newton Health Center","8 Moran Street","Newton","NJ","7860","US","973-383-5218","41.05806419999999","-74.7513945","https://www.plannedparenthood.org/health-center/new-jersey/newton/07860/newton-health-center-2555-90900"
"Ashland Health Center","1532 Siskiyou Blvd.","Ashland","OR","97520","US","541-344-9411","42.1835715","-122.6884325","https://www.plannedparenthood.org/health-center/oregon/ashland/97520/ashland-health-center-2370-91380"
"Bellingham Health Center","1530 Ellis Street","Bellingham","WA","98225","US","360-734-9095","48.7504861","-122.4713124","https://www.plannedparenthood.org/health-center/washington/bellingham/98225/bellingham-health-center-2454-91780"
"Napa Health Center","1735 Jefferson Street","Napa","CA","94559","US","707-252-8050","38.303513","-122.294663","https://www.plannedparenthood.org/health-center/california/napa/94559/napa-health-center-2702-90200"
"Redding Health Center","2935 Bechelli Lane","Redding","CA","96002","US","530-351-7100","40.5644972","-122.3623652","https://www.plannedparenthood.org/health-center/california/redding/96002/redding-health-center-2376-90200"
"North Tonawanda Health Center","15 Webster Street","North Tonawanda","NY","14120","US","866-600-6886","43.02226300000001","-78.87746599999998","https://www.plannedparenthood.org/health-center/new-york/north-tonawanda/14120/north-tonawanda-health-center-2977-91040"
"San Luis Obispo Center","743 Pismo Street","San Luis Obispo","CA","93401","US","888-898-3806","35.2768685","-120.661745","https://www.plannedparenthood.org/health-center/california/san-luis-obispo/93401/san-luis-obispo-center-2252-90170"
"Eureka Health Center","3225 Timber Fall Court Suite B","Eureka","CA","95503","US","707-442-5700","40.7788293","-124.13516690000002","https://www.plannedparenthood.org/health-center/california/eureka/95503/eureka-health-center-2301-90200"
"Central District Health Center","2001 E Madison","Seattle","WA","98122","US","800-769-0045","47.6172929","-122.3050343","https://www.plannedparenthood.org/health-center/washington/seattle/98122/central-district-health-center-3309-91810"
"Everett Health Center","1509 32nd St.","Everett","WA","98201","US","800-769-0045","47.975465","-122.2095988","https://www.plannedparenthood.org/health-center/washington/everett/98201/everett-health-center-2994-91810"
"Federal Way Health Center","1105 S 348th Street #B103","Federal Way","WA","98003","US","800-769-0045","47.28978669999999","-122.3193251","https://www.plannedparenthood.org/health-center/washington/federal-way/98003/federal-way-health-center-2503-91810"
"Northgate Health Center","1200 N. Northgate Way","Seattle","WA","98133","US","800-769-0045","47.7084355","-122.33330150000002","https://www.plannedparenthood.org/health-center/washington/seattle/98133/northgate-health-center-3975-91810"
"Louisville Health Center","842 South 7th Street","Louisville","KY","40203","US","317-205-8088","38.2375215","-85.756188","https://www.plannedparenthood.org/health-center/kentucky/louisville/40203/louisville-health-center-3290-91810"
"Council Bluffs Health Center","1604 2nd Ave","Council Bluffs","IA","51501","US","877-811-7526","41.25997449999999","-95.8679343","https://www.plannedparenthood.org/health-center/iowa/council-bluffs/51501/council-bluffs-health-center-3683-90380"
"White River Junction Health Center","79 South Main St","White River Junction","VT","5001","US","802-281-6056","43.64684990000001","-72.3187407","https://www.plannedparenthood.org/health-center/vermont/white-river-junction/05001/white-river-junction-health-center-2745-91770"
"Keene Health Center","8 Middle Street","Keene","NH","3431","US","603-352-6898","42.9342999","-72.28130609999998","https://www.plannedparenthood.org/health-center/new-hampshire/keene/03431/keene-health-center-2744-91770"
"Rutland Health Center","11 Burnham Avenue","Rutland","VT","5701","US","802-775-2333","43.6153549","-72.9224329","https://www.plannedparenthood.org/health-center/vermont/rutland/05701/rutland-health-center-4229-91770"
"Perth Amboy Center","450 Market Street","Perth Amboy","NJ","8861","US","732-442-4499","40.51137129999999","-74.2829185","https://www.plannedparenthood.org/health-center/new-jersey/perth-amboy/08861/perth-amboy-center-3053-90900"
"Poughkeepsie Health Center","17 Noxon Street","Poughkeepsie","NY","12601","US","845-562-7800","41.7013364","-73.9290677","https://www.plannedparenthood.org/health-center/new-york/poughkeepsie/12601/poughkeepsie-health-center-2621-91110"
"Rome Center","111 E. Chestnut Street, Ste. 205","Rome","NY","13440","US","315-337-8584","43.2312046","-75.440529","https://www.plannedparenthood.org/health-center/new-york/rome/13440/rome-center-2884-91110"
"Tempe Regional Health Center","1837 E Baseline Rd.","Tempe","AZ","85283","US","602-277-7526","33.377301","-111.90635500000002","https://www.plannedparenthood.org/health-center/arizona/tempe/85283/tempe-regional-health-center-4256-90030"
"Mount Vernon Health Center","1805 E Division Street","Mount Vernon","WA","98274","US","360-848-1744","48.4213839","-122.3178997","https://www.plannedparenthood.org/health-center/washington/mount-vernon/98274/mount-vernon-health-center-2843-91780"
"Englewood Health Center","46 N Van Brunt Street","Englewood","NJ","7631","US","201-894-0966","40.8953645","-73.9749837","https://www.plannedparenthood.org/health-center/new-jersey/englewood/07631/englewood-health-center-2946-90900"
"Santa Barbara Center","518 Garden Street","Santa Barbara","CA","93101","US","888-898-3806","34.42097259999999","-119.6923136","https://www.plannedparenthood.org/health-center/california/santa-barbara/93101/santa-barbara-center-3268-90170"
"El Cerrito Health Center","320 El Cerrito Plaza","El Cerrito","CA","94530","US","510-527-5806","37.8996411","-122.29985859999998","https://www.plannedparenthood.org/health-center/california/el-cerrito/94530/el-cerrito-health-center-3940-90200"
"Elizabeth Health Center","1171 Elizabeth Avenue","Elizabeth","NJ","7201","US","908-351-5384","40.66231099999999","-74.21428700000001","https://www.plannedparenthood.org/health-center/new-jersey/elizabeth/07201/elizabeth-health-center-2599-90900"
"Cobleskill Center","109 Legion Drive","Cobleskill","NY","12043","US","518-234-3325","42.6808653","-74.4807234","https://www.plannedparenthood.org/health-center/new-york/cobleskill/12043/cobleskill-center-2783-91110"
"Hackensack Health Center","575 Main Street","Hackensack","NJ","7601","US","201-489-1140","40.8971816","-74.0403286","https://www.plannedparenthood.org/health-center/new-jersey/hackensack/07601/hackensack-health-center-2947-90900"
"Hamilton Health Center","2279 State Highway 33","Hamilton Square","NJ","8690","US","609-788-3233","40.2210589","-74.637456","https://www.plannedparenthood.org/health-center/new-jersey/hamilton-square/08690/hamilton-health-center-2343-90900"
"Utica Center","1424 Genesee Street","Utica","NY","13502","US","315-724-6146","43.094305","-75.246807","https://www.plannedparenthood.org/health-center/new-york/utica/13502/utica-center-3318-91110"
"Central Austin Health Center","2911 Medical Arts, Suite 12","Austin","TX","78705","US","512-477-5846","30.289017","-97.727979","https://www.plannedparenthood.org/health-center/texas/austin/78705/central-austin-health-center-2395-91620"
"Morristown Health Center","196 Speedwell Ave","Morristown","NJ","7960","US","973-539-1364","40.80611069999999","-74.48320329999999","https://www.plannedparenthood.org/health-center/new-jersey/morristown/07960/morristown-health-center-3307-90900"
"Trenton Health Center","437 East State Street","Trenton","NJ","8608","US","609-599-4881","40.220678","-74.755918","https://www.plannedparenthood.org/health-center/new-jersey/trenton/08608/trenton-health-center-3304-90900"
"Tacoma Health Center","1515 Martin Luther King Jr. Way","Tacoma","WA","98405","US","800-769-0045","47.247453","-122.45020130000002","https://www.plannedparenthood.org/health-center/washington/tacoma/98405/tacoma-health-center-4106-91810"
"Lynnwood Health Center","19505 76th Ave W. 200","Lynnwood","WA","98036","US","800-769-0045","47.8220361","-122.3351286","https://www.plannedparenthood.org/health-center/washington/lynnwood/98036/lynnwood-health-center-2996-91810"
"Batavia Health Center","222 W Main Street","Batavia","NY","14020","US","866-600-6886","43.0011069","-78.1935119","https://www.plannedparenthood.org/health-center/new-york/batavia/14020/batavia-health-center-2353-91040"
"East Atlanta Health Center","440 Moreland Avenue SE","Atlanta","GA","30316","US","404-688-9300","33.7420534","-84.34888669999998","https://www.plannedparenthood.org/health-center/georgia/atlanta/30316/east-atlanta-health-center-4286-90330"
"West Seneca Health Center","Wimbledon Plaza 240 Center Road","West Seneca","NY","14224","US","866-600-6886","42.84041479999999","-78.7731236","https://www.plannedparenthood.org/health-center/new-york/west-seneca/14224/west-seneca-health-center-2693-91040"
"Clearlake Health Center","14671 Olympic Drive","Clearlake","CA","95422","US","707-995-2261","38.9617652","-122.638241","https://www.plannedparenthood.org/health-center/california/clearlake/95422/clearlake-health-center-4068-90200"
"Schenectady Center","1040 State Street","Schenectady","NY","12307","US","518-374-5353","42.8013862","-73.92853189999998","https://www.plannedparenthood.org/health-center/new-york/schenectady/12307/schenectady-center-4192-91110"
"Queensbury Health Center","543 Bay Road","Queensbury","NY","12804","US","518-792-0994","43.3462848","-73.65584100000001","https://www.plannedparenthood.org/health-center/new-york/queensbury/12804/queensbury-health-center-4257-91110"
"Johnstown Center","400 North Perry Street","Johnstown","NY","12095","US","518-736-1911","43.0205443","-74.3684803","https://www.plannedparenthood.org/health-center/new-york/johnstown/12095/johnstown-center-3530-91110"
"Ogden Health Center","4387 Harrison Blvd.","Ogden","UT","84403","US","801-479-7721","41.18324549999999","-111.95015349999998","https://www.plannedparenthood.org/health-center/utah/ogden/84403/ogden-health-center-2256-91730"
"Newburgh Health Center","136 Lake Street, Suite11","Newburgh","NY","12550","US","845-562-7800","41.4968896","-74.02962450000001","https://www.plannedparenthood.org/health-center/new-york/newburgh/12550/newburgh-health-center-3995-91110"
"Dover Center","805 S Governors Ave","Dover","DE","19901","US","302-678-5200","39.1484132","-75.5247126","https://www.plannedparenthood.org/health-center/delaware/dover/19901/dover-center-2896-90240"
"Sparta Health Center","919 Hoeschler Drive Suite 100","Sparta","WI","54656","US","800-657-5177","43.9345429","-90.82528960000002","https://www.plannedparenthood.org/health-center/wisconsin/sparta/54656/sparta-health-center-9003-91860"
"Kingston Health Center","21 Grand Street","Kingston","NY","12401","US","845-562-7800","41.9286457","-73.9997426","https://www.plannedparenthood.org/health-center/new-york/kingston/12401/kingston-health-center-2623-91110"
"El Paso Health Center","1511 E. Missouri Avenue","El Paso","TX","79902","US","915-626-5191","31.7705209","-106.4766214","https://www.plannedparenthood.org/health-center/texas/el-paso/79902/el-paso-health-center-4524-91620"
"Bennington Health Center","210 South St. Ste. 4","Bennington","VT","5201","US","802-442-8166","42.8769172","-73.19668039999999","https://www.plannedparenthood.org/health-center/vermont/bennington/05201/bennington-health-center-2655-91770"
"Goshen Health Center","7 Coates Drive, Suite 4","Goshen","NY","10924","US","845-562-7800","41.3905859","-74.3357148","https://www.plannedparenthood.org/health-center/new-york/goshen/10924/goshen-health-center-2624-91110"
"New Brunswick Center","10B Industrial Drive","New Brunswick","NJ","8901","US","732-246-2411","40.4770506","-74.4836065","https://www.plannedparenthood.org/health-center/new-jersey/new-brunswick/08901/new-brunswick-center-2684-90900"
"South Austin Abortion Services Center","201 E. Ben White Blvd. - Bldg. A","Austin","TX","78704","US","512-276-8000","30.2208775","-97.76310690000004","https://www.plannedparenthood.org/health-center/texas/austin/78704/south-austin-abortion-services-center-4250-21342"
"Sheboygan Health Center","909 South Taylor Drive","Sheboygan","WI","53081","US","920-458-9401","43.74533940000001","-87.74269190000001","https://www.plannedparenthood.org/health-center/wisconsin/sheboygan/53081/sheboygan-health-center-4514-91860"
"Audre Rapoport Abortion Services Center","700 West Highway 6 Suite A","Waco","TX","76712","US","254-230-9864","31.5176122","-97.2043276","https://www.plannedparenthood.org/health-center/texas/waco/76712/audre-rapoport-abortion-services-center-4283-21342"
"Newark DE Center","140 E Delaware Ave","Newark","DE","19711","US","302-731-7801","39.6823102","-75.7476555","https://www.plannedparenthood.org/health-center/delaware/newark/19711/newark-de-center-2895-90240"
"Williston Health Center","75 Talcott Road","Williston","VT","5495","US","802-879-4800","44.447835","-73.104665","https://www.plannedparenthood.org/health-center/vermont/williston/05495/williston-health-center-3317-91770"
"Freehold Center","800 W Main Street","Freehold","NJ","7728","US","732-431-1717","40.235235","-74.3115289","https://www.plannedparenthood.org/health-center/new-jersey/freehold/07728/freehold-center-2683-90900"
"Barre Health Center","90 Washington Street","Barre","VT","5641","US","802-476-6696","44.1950834","-72.4967871","https://www.plannedparenthood.org/health-center/vermont/barre/05641/barre-health-center-2654-91770"
"Blair Health Center","223 South Main St.","Blair","WI","54616","US","800-657-5177","44.29280079999999","-91.22849889999998","https://www.plannedparenthood.org/health-center/wisconsin/blair/54616/blair-health-center-9002-91860"
"Thousand Oaks Center","1200 W Hillcrest","Thousand Oaks","CA","91320","US","888-898-3806","34.1848319","-118.9068779","https://www.plannedparenthood.org/health-center/california/thousand-oaks/91320/thousand-oaks-center-3851-90170"
"Wellington Health Center (West Palm Beach)","10111 Forest Hill Blvd, Suite 340","Wellington","FL","33414","US","561-296-4919","26.6527165","-80.2042882","https://www.plannedparenthood.org/health-center/florida/wellington/33414/wellington-health-center-west-palm-beach-4066-90320"
"Pembroke Pines Health Center","263 North University Drive","Pembroke Pines","FL","33024","US","954-989-5747","26.0109998","-80.24825689999999","https://www.plannedparenthood.org/health-center/florida/pembroke-pines/33024/pembroke-pines-health-center-3917-90320"
"Canandaigua Health Center","15 LaFayette Avenue","Canandaigua","NY","14424","US","866-600-6886","42.885984","-77.27789","https://www.plannedparenthood.org/health-center/new-york/canandaigua/14424/canandaigua-health-center-2352-91040"
"Rochester Health Center","114 University Avenue","Rochester","NY","14605","US","866-600-6886","43.1607458","-77.5994825","https://www.plannedparenthood.org/health-center/new-york/rochester/14605/rochester-health-center-3332-91040"
"Santa Maria Center","415 E Chapel Street","Santa Maria","CA","93454","US","888-898-3806","34.954617","-120.430722","https://www.plannedparenthood.org/health-center/california/santa-maria/93454/santa-maria-center-2250-90170"
